{
"type": "FeatureCollection",
"name": "bangunan_tidak_match",
"crs": { "type": "name", "properties": { "name": "urn:ogc:def:crs:OGC:1.3:CRS84" } },
"features": [
{ "type": "Feature", "properties": { "nomor": 1, "id_bangunan": "SDI-A85-085", "fungsi_bangunan": "Pondok", "jumlah_lantai": 1, "index_right": null, "footprint_id": null, "SHAPE_Area": null }, "geometry": { "type": "Point", "coordinates": [ 105.223883, -5.548431 ] } },
{ "type": "Feature", "properties": { "nomor": 3, "id_bangunan": "SDI-C01-001", "fungsi_bangunan": "Rumah Tinggal", "jumlah_lantai": 2, "index_right": null, "footprint_id": null, "SHAPE_Area": null }, "geometry": { "type": "Point", "coordinates": [ 105.235376, -5.552167 ] } },
{ "type": "Feature", "properties": { "nomor": 6, "id_bangunan": "SDI-C02-002", "fungsi_bangunan": "Rumah Tinggal", "jumlah_lantai": 1, "index_right": null, "footprint_id": null, "SHAPE_Area": null }, "geometry": { "type": "Point", "coordinates": [ 105.235241, -5.552325 ] } },
{ "type": "Feature", "properties": { "nomor": 7, "id_bangunan": "SDI-C03-003", "fungsi_bangunan": "Rumah Tinggal", "jumlah_lantai": 1, "index_right": null, "footprint_id": null, "SHAPE_Area": null }, "geometry": { "type": "Point", "coordinates": [ 105.235181, -5.55244 ] } },
{ "type": "Feature", "properties": { "nomor": 8, "id_bangunan": "SDI-C04-004", "fungsi_bangunan": "Rumah Tinggal", "jumlah_lantai": 1, "index_right": null, "footprint_id": null, "SHAPE_Area": null }, "geometry": { "type": "Point", "coordinates": [ 105.235085, -5.552495 ] } },
{ "type": "Feature", "properties": { "nomor": 12, "id_bangunan": "SDI-C08-008", "fungsi_bangunan": "Rumah Tinggal", "jumlah_lantai": 1, "index_right": null, "footprint_id": null, "SHAPE_Area": null }, "geometry": { "type": "Point", "coordinates": [ 105.233965, -5.552464 ] } },
{ "type": "Feature", "properties": { "nomor": 14, "id_bangunan": "SDI-C09-009", "fungsi_bangunan": "Rumah Tinggal", "jumlah_lantai": 1, "index_right": null, "footprint_id": null, "SHAPE_Area": null }, "geometry": { "type": "Point", "coordinates": [ 105.233915, -5.552436 ] } },
{ "type": "Feature", "properties": { "nomor": 16, "id_bangunan": "SDI-C11-011", "fungsi_bangunan": "Rumah Tinggal", "jumlah_lantai": 1, "index_right": null, "footprint_id": null, "SHAPE_Area": null }, "geometry": { "type": "Point", "coordinates": [ 105.233947, -5.552238 ] } },
{ "type": "Feature", "properties": { "nomor": 17, "id_bangunan": "SDI-C12-012", "fungsi_bangunan": "Rumah Tinggal", "jumlah_lantai": 1, "index_right": null, "footprint_id": null, "SHAPE_Area": null }, "geometry": { "type": "Point", "coordinates": [ 105.234039, -5.552142 ] } },
{ "type": "Feature", "properties": { "nomor": 18, "id_bangunan": "SDI-C13-013", "fungsi_bangunan": "Rumah Tinggal", "jumlah_lantai": 1, "index_right": null, "footprint_id": null, "SHAPE_Area": null }, "geometry": { "type": "Point", "coordinates": [ 105.234126, -5.552146 ] } },
{ "type": "Feature", "properties": { "nomor": 20, "id_bangunan": "SDI-C15-015", "fungsi_bangunan": "Rumah Tinggal", "jumlah_lantai": 1, "index_right": null, "footprint_id": null, "SHAPE_Area": null }, "geometry": { "type": "Point", "coordinates": [ 105.23364, -5.552289 ] } },
{ "type": "Feature", "properties": { "nomor": 39, "id_bangunan": "SDI-C19-019", "fungsi_bangunan": "Rumah Tinggal", "jumlah_lantai": 1, "index_right": null, "footprint_id": null, "SHAPE_Area": null }, "geometry": { "type": "Point", "coordinates": [ 105.235496, -5.551662 ] } },
{ "type": "Feature", "properties": { "nomor": 42, "id_bangunan": "SDI-C21-021", "fungsi_bangunan": "Rumah Tinggal", "jumlah_lantai": 1, "index_right": null, "footprint_id": null, "SHAPE_Area": null }, "geometry": { "type": "Point", "coordinates": [ 105.235506, -5.551859 ] } },
{ "type": "Feature", "properties": { "nomor": 43, "id_bangunan": "SDI-C22-022", "fungsi_bangunan": "Rumah Tinggal", "jumlah_lantai": 1, "index_right": null, "footprint_id": null, "SHAPE_Area": null }, "geometry": { "type": "Point", "coordinates": [ 105.235052, -5.551943 ] } },
{ "type": "Feature", "properties": { "nomor": 45, "id_bangunan": "SDI-C23-023", "fungsi_bangunan": "Rumah Tinggal", "jumlah_lantai": 1, "index_right": null, "footprint_id": null, "SHAPE_Area": null }, "geometry": { "type": "Point", "coordinates": [ 105.235101, -5.551794 ] } },
{ "type": "Feature", "properties": { "nomor": 46, "id_bangunan": "SDI-C24-024", "fungsi_bangunan": "Rumah Tinggal", "jumlah_lantai": 1, "index_right": null, "footprint_id": null, "SHAPE_Area": null }, "geometry": { "type": "Point", "coordinates": [ 105.235092, -5.551743 ] } },
{ "type": "Feature", "properties": { "nomor": 50, "id_bangunan": "SDI-C26-026", "fungsi_bangunan": "Rumah Tinggal", "jumlah_lantai": 1, "index_right": null, "footprint_id": null, "SHAPE_Area": null }, "geometry": { "type": "Point", "coordinates": [ 105.234873, -5.551848 ] } },
{ "type": "Feature", "properties": { "nomor": 51, "id_bangunan": "SDI-C27-027", "fungsi_bangunan": "Rumah Tinggal", "jumlah_lantai": 1, "index_right": null, "footprint_id": null, "SHAPE_Area": null }, "geometry": { "type": "Point", "coordinates": [ 105.234928, -5.551633 ] } },
{ "type": "Feature", "properties": { "nomor": 53, "id_bangunan": "SDI-C29-029", "fungsi_bangunan": "Rumah Tinggal", "jumlah_lantai": 1, "index_right": null, "footprint_id": null, "SHAPE_Area": null }, "geometry": { "type": "Point", "coordinates": [ 105.235205, -5.551237 ] } },
{ "type": "Feature", "properties": { "nomor": 58, "id_bangunan": "SDI-A37-037", "fungsi_bangunan": "Rumah Tinggal", "jumlah_lantai": 1, "index_right": null, "footprint_id": null, "SHAPE_Area": null }, "geometry": { "type": "Point", "coordinates": [ 105.225263, -5.544043 ] } },
{ "type": "Feature", "properties": { "nomor": 59, "id_bangunan": "SDI-A39-039", "fungsi_bangunan": "Rumah Tinggal", "jumlah_lantai": 1, "index_right": null, "footprint_id": null, "SHAPE_Area": null }, "geometry": { "type": "Point", "coordinates": [ 105.225139, -5.544144 ] } },
{ "type": "Feature", "properties": { "nomor": 62, "id_bangunan": "SDI-A42-042", "fungsi_bangunan": "Rumah Tinggal", "jumlah_lantai": 1, "index_right": null, "footprint_id": null, "SHAPE_Area": null }, "geometry": { "type": "Point", "coordinates": [ 105.224923, -5.544039 ] } },
{ "type": "Feature", "properties": { "nomor": 63, "id_bangunan": "SDI-C32-032", "fungsi_bangunan": "Rumah Tinggal", "jumlah_lantai": 1, "index_right": null, "footprint_id": null, "SHAPE_Area": null }, "geometry": { "type": "Point", "coordinates": [ 105.234667, -5.55145 ] } },
{ "type": "Feature", "properties": { "nomor": 65, "id_bangunan": "Blok A (SDI-A01-044)", "fungsi_bangunan": "Rumah Tinggal", "jumlah_lantai": 1, "index_right": null, "footprint_id": null, "SHAPE_Area": null }, "geometry": { "type": "Point", "coordinates": [ 105.224676, -5.543823 ] } },
{ "type": "Feature", "properties": { "nomor": 68, "id_bangunan": "Blok A (SDI-A01-047)", "fungsi_bangunan": "Rumah Tinggal", "jumlah_lantai": 1, "index_right": null, "footprint_id": null, "SHAPE_Area": null }, "geometry": { "type": "Point", "coordinates": [ 105.224543, -5.544062 ] } },
{ "type": "Feature", "properties": { "nomor": 70, "id_bangunan": "Blok A (SDI-A01-049)", "fungsi_bangunan": "Rumah Tinggal", "jumlah_lantai": 1, "index_right": null, "footprint_id": null, "SHAPE_Area": null }, "geometry": { "type": "Point", "coordinates": [ 105.224451, -5.543583 ] } },
{ "type": "Feature", "properties": { "nomor": 71, "id_bangunan": "Blok A (SDI-A01-050)", "fungsi_bangunan": "Rumah Tinggal", "jumlah_lantai": 1, "index_right": null, "footprint_id": null, "SHAPE_Area": null }, "geometry": { "type": "Point", "coordinates": [ 105.224359, -5.543625 ] } },
{ "type": "Feature", "properties": { "nomor": 76, "id_bangunan": "Blok A (SDI-A01-055)", "fungsi_bangunan": "Rumah Tinggal", "jumlah_lantai": 1, "index_right": null, "footprint_id": null, "SHAPE_Area": null }, "geometry": { "type": "Point", "coordinates": [ 105.223987, -5.543758 ] } },
{ "type": "Feature", "properties": { "nomor": 88, "id_bangunan": "Blok A (SDI-A01-065)", "fungsi_bangunan": "Rumah Tinggal", "jumlah_lantai": 1, "index_right": null, "footprint_id": null, "SHAPE_Area": null }, "geometry": { "type": "Point", "coordinates": [ 105.222161, -5.543851 ] } },
{ "type": "Feature", "properties": { "nomor": 90, "id_bangunan": "SDI-B07-007", "fungsi_bangunan": "Rumah Tinggal", "jumlah_lantai": 1, "index_right": null, "footprint_id": null, "SHAPE_Area": null }, "geometry": { "type": "Point", "coordinates": [ 105.232308, -5.550107 ] } },
{ "type": "Feature", "properties": { "nomor": 93, "id_bangunan": "SDI-B09-009", "fungsi_bangunan": "Rumah Tinggal", "jumlah_lantai": 1, "index_right": null, "footprint_id": null, "SHAPE_Area": null }, "geometry": { "type": "Point", "coordinates": [ 105.231803, -5.550052 ] } },
{ "type": "Feature", "properties": { "nomor": 94, "id_bangunan": "SDI-B10-010", "fungsi_bangunan": "Rumah Tinggal", "jumlah_lantai": 1, "index_right": null, "footprint_id": null, "SHAPE_Area": null }, "geometry": { "type": "Point", "coordinates": [ 105.232069, -5.549937 ] } },
{ "type": "Feature", "properties": { "nomor": 99, "id_bangunan": "SDI-B15-015", "fungsi_bangunan": "Rumah Tinggal", "jumlah_lantai": 1, "index_right": null, "footprint_id": null, "SHAPE_Area": null }, "geometry": { "type": "Point", "coordinates": [ 105.231863, -5.54973 ] } },
{ "type": "Feature", "properties": { "nomor": 100, "id_bangunan": "SDI-B16-016", "fungsi_bangunan": "Rumah Tinggal", "jumlah_lantai": 1, "index_right": null, "footprint_id": null, "SHAPE_Area": null }, "geometry": { "type": "Point", "coordinates": [ 105.231675, -5.549597 ] } },
{ "type": "Feature", "properties": { "nomor": 101, "id_bangunan": "SDI-17-017", "fungsi_bangunan": "Rumah Tinggal", "jumlah_lantai": 1, "index_right": null, "footprint_id": null, "SHAPE_Area": null }, "geometry": { "type": "Point", "coordinates": [ 105.2315, -5.599482 ] } },
{ "type": "Feature", "properties": { "nomor": 108, "id_bangunan": "SDI-B24-024", "fungsi_bangunan": "Rumah Tinggal", "jumlah_lantai": 1, "index_right": null, "footprint_id": null, "SHAPE_Area": null }, "geometry": { "type": "Point", "coordinates": [ 105.230455, -5.548349 ] } },
{ "type": "Feature", "properties": { "nomor": 110, "id_bangunan": "SDI-B26-026", "fungsi_bangunan": "Rumah Tinggal", "jumlah_lantai": 1, "index_right": null, "footprint_id": null, "SHAPE_Area": null }, "geometry": { "type": "Point", "coordinates": [ 105.230174, -5.5479 ] } },
{ "type": "Feature", "properties": { "nomor": 119, "id_bangunan": "SDI-B38-038", "fungsi_bangunan": "Rumah Tinggal", "jumlah_lantai": 1, "index_right": null, "footprint_id": null, "SHAPE_Area": null }, "geometry": { "type": "Point", "coordinates": [ 105.229749, -5.547103 ] } },
{ "type": "Feature", "properties": { "nomor": 124, "id_bangunan": "SDI-B43-043", "fungsi_bangunan": "Rumah Tinggal", "jumlah_lantai": 1, "index_right": null, "footprint_id": null, "SHAPE_Area": null }, "geometry": { "type": "Point", "coordinates": [ 105.229164, -5.547018 ] } },
{ "type": "Feature", "properties": { "nomor": 130, "id_bangunan": "SDI-B51-051", "fungsi_bangunan": "Rumah Tinggal", "jumlah_lantai": 1, "index_right": null, "footprint_id": null, "SHAPE_Area": null }, "geometry": { "type": "Point", "coordinates": [ 105.228996, -5.547832 ] } },
{ "type": "Feature", "properties": { "nomor": 134, "id_bangunan": "SDI-B55-055", "fungsi_bangunan": "Rumah Tinggal", "jumlah_lantai": 1, "index_right": null, "footprint_id": null, "SHAPE_Area": null }, "geometry": { "type": "Point", "coordinates": [ 105.22938, -5.547974 ] } },
{ "type": "Feature", "properties": { "nomor": 136, "id_bangunan": "SDI-B57-057", "fungsi_bangunan": "Rumah Tinggal", "jumlah_lantai": 1, "index_right": null, "footprint_id": null, "SHAPE_Area": null }, "geometry": { "type": "Point", "coordinates": [ 105.229435, -5.548084 ] } },
{ "type": "Feature", "properties": { "nomor": 139, "id_bangunan": "SDI-B60-060", "fungsi_bangunan": "Rumah Tinggal", "jumlah_lantai": 1, "index_right": null, "footprint_id": null, "SHAPE_Area": null }, "geometry": { "type": "Point", "coordinates": [ 105.229486, -5.548204 ] } },
{ "type": "Feature", "properties": { "nomor": 152, "id_bangunan": "SDI-B73-073", "fungsi_bangunan": "Rumah Tinggal", "jumlah_lantai": 1, "index_right": null, "footprint_id": null, "SHAPE_Area": null }, "geometry": { "type": "Point", "coordinates": [ 105.230216, -5.549694 ] } },
{ "type": "Feature", "properties": { "nomor": 161, "id_bangunan": "SDI-B82-082", "fungsi_bangunan": "Rumah Tinggal", "jumlah_lantai": 1, "index_right": null, "footprint_id": null, "SHAPE_Area": null }, "geometry": { "type": "Point", "coordinates": [ 105.230647, -5.550586 ] } },
{ "type": "Feature", "properties": { "nomor": 168, "id_bangunan": "SDI-B90-090", "fungsi_bangunan": "Rumah Tinggal", "jumlah_lantai": 1, "index_right": null, "footprint_id": null, "SHAPE_Area": null }, "geometry": { "type": "Point", "coordinates": [ 105.231001, -5.551156 ] } },
{ "type": "Feature", "properties": { "nomor": 171, "id_bangunan": "SDI-B93-093", "fungsi_bangunan": "Rumah Tinggal", "jumlah_lantai": 1, "index_right": null, "footprint_id": null, "SHAPE_Area": null }, "geometry": { "type": "Point", "coordinates": [ 105.231376, -5.551174 ] } },
{ "type": "Feature", "properties": { "nomor": 173, "id_bangunan": "SDI-C34-034", "fungsi_bangunan": "Rumah Tinggal", "jumlah_lantai": 1, "index_right": null, "footprint_id": null, "SHAPE_Area": null }, "geometry": { "type": "Point", "coordinates": [ 105.237164, -5.553458 ] } },
{ "type": "Feature", "properties": { "nomor": 174, "id_bangunan": "SDI-C35-035", "fungsi_bangunan": "Rumah Tinggal", "jumlah_lantai": 1, "index_right": null, "footprint_id": null, "SHAPE_Area": null }, "geometry": { "type": "Point", "coordinates": [ 105.237265, -5.553348 ] } },
{ "type": "Feature", "properties": { "nomor": 175, "id_bangunan": "SDI-C36-036", "fungsi_bangunan": "Rumah Tinggal", "jumlah_lantai": 1, "index_right": null, "footprint_id": null, "SHAPE_Area": null }, "geometry": { "type": "Point", "coordinates": [ 105.237494, -5.553357 ] } },
{ "type": "Feature", "properties": { "nomor": 180, "id_bangunan": "SDI-C42-042", "fungsi_bangunan": "Rumah Tinggal", "jumlah_lantai": 1, "index_right": null, "footprint_id": null, "SHAPE_Area": null }, "geometry": { "type": "Point", "coordinates": [ 105.237008, -5.552902 ] } },
{ "type": "Feature", "properties": { "nomor": 182, "id_bangunan": "SDI-C45-045", "fungsi_bangunan": "Rumah Tinggal", "jumlah_lantai": 1, "index_right": null, "footprint_id": null, "SHAPE_Area": null }, "geometry": { "type": "Point", "coordinates": [ 105.237223, -5.552621 ] } },
{ "type": "Feature", "properties": { "nomor": 194, "id_bangunan": "Blok C (SDI-C63-063)", "fungsi_bangunan": "Rumah Tinggal", "jumlah_lantai": 1, "index_right": null, "footprint_id": null, "SHAPE_Area": null }, "geometry": { "type": "Point", "coordinates": [ 105.23455, -5.551369 ] } },
{ "type": "Feature", "properties": { "nomor": 196, "id_bangunan": "Blok C (SDI-C65-065)", "fungsi_bangunan": "Rumah Tinggal", "jumlah_lantai": 1, "index_right": null, "footprint_id": null, "SHAPE_Area": null }, "geometry": { "type": "Point", "coordinates": [ 105.234275, -5.551571 ] } },
{ "type": "Feature", "properties": { "nomor": 197, "id_bangunan": "Blok C (SDI-C66-066)", "fungsi_bangunan": "Rumah Tinggal", "jumlah_lantai": 1, "index_right": null, "footprint_id": null, "SHAPE_Area": null }, "geometry": { "type": "Point", "coordinates": [ 105.234102, -5.551557 ] } },
{ "type": "Feature", "properties": { "nomor": 199, "id_bangunan": "Blok C (SDI-C68-068)", "fungsi_bangunan": "Rumah Tinggal", "jumlah_lantai": 1, "index_right": null, "footprint_id": null, "SHAPE_Area": null }, "geometry": { "type": "Point", "coordinates": [ 105.233746, -5.551575 ] } },
{ "type": "Feature", "properties": { "nomor": 200, "id_bangunan": "Blok C (SDI-C69-069)", "fungsi_bangunan": "Rumah Tinggal", "jumlah_lantai": 1, "index_right": null, "footprint_id": null, "SHAPE_Area": null }, "geometry": { "type": "Point", "coordinates": [ 105.23359, -5.55161 ] } },
{ "type": "Feature", "properties": { "nomor": 202, "id_bangunan": "Blok C (SDI-C71-071)", "fungsi_bangunan": "Rumah Tinggal", "jumlah_lantai": 1, "index_right": null, "footprint_id": null, "SHAPE_Area": null }, "geometry": { "type": "Point", "coordinates": [ 105.233389, -5.551709 ] } },
{ "type": "Feature", "properties": { "nomor": 205, "id_bangunan": "Blok C (SDI-C74-074)", "fungsi_bangunan": "Rumah Tinggal", "jumlah_lantai": 1, "index_right": null, "footprint_id": null, "SHAPE_Area": null }, "geometry": { "type": "Point", "coordinates": [ 105.234223, -5.551497 ] } },
{ "type": "Feature", "properties": { "nomor": 207, "id_bangunan": "Blok C (SDI-C76-076)", "fungsi_bangunan": "Rumah Tinggal", "jumlah_lantai": 1, "index_right": null, "footprint_id": null, "SHAPE_Area": null }, "geometry": { "type": "Point", "coordinates": [ 105.236242, -5.553562 ] } },
{ "type": "Feature", "properties": { "nomor": 208, "id_bangunan": "Blok C (SDI-C78-078)", "fungsi_bangunan": "Rumah Tinggal", "jumlah_lantai": 1, "index_right": null, "footprint_id": null, "SHAPE_Area": null }, "geometry": { "type": "Point", "coordinates": [ 105.235948, -5.55345 ] } },
{ "type": "Feature", "properties": { "nomor": 209, "id_bangunan": "Blok C (SDI-C79-079)", "fungsi_bangunan": "Rumah Tinggal", "jumlah_lantai": 1, "index_right": null, "footprint_id": null, "SHAPE_Area": null }, "geometry": { "type": "Point", "coordinates": [ 105.235904, -5.553392 ] } },
{ "type": "Feature", "properties": { "nomor": 211, "id_bangunan": "Blok C (SDI-C81-081)", "fungsi_bangunan": "Rumah Tinggal", "jumlah_lantai": 1, "index_right": null, "footprint_id": null, "SHAPE_Area": null }, "geometry": { "type": "Point", "coordinates": [ 105.236129, -5.553266 ] } },
{ "type": "Feature", "properties": { "nomor": 212, "id_bangunan": "Blok C (SDI-C83-083)", "fungsi_bangunan": "Rumah Tinggal", "jumlah_lantai": 1, "index_right": null, "footprint_id": null, "SHAPE_Area": null }, "geometry": { "type": "Point", "coordinates": [ 105.236008, -5.553525 ] } },
{ "type": "Feature", "properties": { "nomor": 214, "id_bangunan": "Blok C (SDI-C85-085)", "fungsi_bangunan": "Rumah Tinggal", "jumlah_lantai": 2, "index_right": null, "footprint_id": null, "SHAPE_Area": null }, "geometry": { "type": "Point", "coordinates": [ 105.235757, -5.552924 ] } },
{ "type": "Feature", "properties": { "nomor": 216, "id_bangunan": "Blok C (SDI-C89-089)", "fungsi_bangunan": "Rumah Tinggal", "jumlah_lantai": 1, "index_right": null, "footprint_id": null, "SHAPE_Area": null }, "geometry": { "type": "Point", "coordinates": [ 105.236429, -5.553629 ] } },
{ "type": "Feature", "properties": { "nomor": 217, "id_bangunan": "Blok C (SDI-C90-090)", "fungsi_bangunan": "Rumah Tinggal", "jumlah_lantai": 1, "index_right": null, "footprint_id": null, "SHAPE_Area": null }, "geometry": { "type": "Point", "coordinates": [ 105.236497, -5.553662 ] } },
{ "type": "Feature", "properties": { "nomor": 218, "id_bangunan": "Blok C (SDI-C91-091)", "fungsi_bangunan": "Rumah Tinggal", "jumlah_lantai": 1, "index_right": null, "footprint_id": null, "SHAPE_Area": null }, "geometry": { "type": "Point", "coordinates": [ 105.236918, -5.553462 ] } },
{ "type": "Feature", "properties": { "nomor": 219, "id_bangunan": "Blok C (SDI-C92-092)", "fungsi_bangunan": "Rumah Tinggal", "jumlah_lantai": 1, "index_right": null, "footprint_id": null, "SHAPE_Area": null }, "geometry": { "type": "Point", "coordinates": [ 105.2368, -5.553362 ] } },
{ "type": "Feature", "properties": { "nomor": 220, "id_bangunan": "Blok C (SDI-C93-093)", "fungsi_bangunan": "Rumah Tinggal", "jumlah_lantai": 1, "index_right": null, "footprint_id": null, "SHAPE_Area": null }, "geometry": { "type": "Point", "coordinates": [ 105.236795, -5.523323 ] } },
{ "type": "Feature", "properties": { "nomor": 221, "id_bangunan": "Blok C (SDI-C94-094)", "fungsi_bangunan": "Rumah Tinggal", "jumlah_lantai": 1, "index_right": null, "footprint_id": null, "SHAPE_Area": null }, "geometry": { "type": "Point", "coordinates": [ 105.236691, -5.553139 ] } },
{ "type": "Feature", "properties": { "nomor": 222, "id_bangunan": "Blok C (SDI-C95-095)", "fungsi_bangunan": "Rumah Tinggal", "jumlah_lantai": 1, "index_right": null, "footprint_id": null, "SHAPE_Area": null }, "geometry": { "type": "Point", "coordinates": [ 105.236606, -5.553149 ] } },
{ "type": "Feature", "properties": { "nomor": 223, "id_bangunan": "Blok C (SDI-C96-096)", "fungsi_bangunan": "Rumah Tinggal", "jumlah_lantai": 1, "index_right": null, "footprint_id": null, "SHAPE_Area": null }, "geometry": { "type": "Point", "coordinates": [ 105.236458, -5.553228 ] } },
{ "type": "Feature", "properties": { "nomor": 224, "id_bangunan": "Blok C (SDI-C97-097)", "fungsi_bangunan": "Rumah Tinggal", "jumlah_lantai": 1, "index_right": null, "footprint_id": null, "SHAPE_Area": null }, "geometry": { "type": "Point", "coordinates": [ 105.236673, -5.22292 ] } },
{ "type": "Feature", "properties": { "nomor": 225, "id_bangunan": "Blok C (SDI-C98-098)", "fungsi_bangunan": "Rumah Tinggal", "jumlah_lantai": 1, "index_right": null, "footprint_id": null, "SHAPE_Area": null }, "geometry": { "type": "Point", "coordinates": [ 105.236721, -5.552822 ] } },
{ "type": "Feature", "properties": { "nomor": 226, "id_bangunan": "Blok C (SDI-C99-099)", "fungsi_bangunan": "Rumah Tinggal", "jumlah_lantai": 1, "index_right": null, "footprint_id": null, "SHAPE_Area": null }, "geometry": { "type": "Point", "coordinates": [ 105.236425, -5.552976 ] } },
{ "type": "Feature", "properties": { "nomor": 227, "id_bangunan": "Blok C (SDI-C100-100)", "fungsi_bangunan": "Rumah Tinggal", "jumlah_lantai": 1, "index_right": null, "footprint_id": null, "SHAPE_Area": null }, "geometry": { "type": "Point", "coordinates": [ 105.236524, -5.552764 ] } },
{ "type": "Feature", "properties": { "nomor": 228, "id_bangunan": "Blok C (SDI-C101-101)", "fungsi_bangunan": "Rumah Tinggal", "jumlah_lantai": 1, "index_right": null, "footprint_id": null, "SHAPE_Area": null }, "geometry": { "type": "Point", "coordinates": [ 105.236353, -5.55262 ] } },
{ "type": "Feature", "properties": { "nomor": 233, "id_bangunan": "SDI-C108-108", "fungsi_bangunan": "Rumah Tinggal", "jumlah_lantai": 1, "index_right": null, "footprint_id": null, "SHAPE_Area": null }, "geometry": { "type": "Point", "coordinates": [ 105.235264, -5.552806 ] } },
{ "type": "Feature", "properties": { "nomor": 239, "id_bangunan": "SDI-C114-114", "fungsi_bangunan": "Rumah Tinggal", "jumlah_lantai": 1, "index_right": null, "footprint_id": null, "SHAPE_Area": null }, "geometry": { "type": "Point", "coordinates": [ 105.234837, -5.55333 ] } },
{ "type": "Feature", "properties": { "nomor": 241, "id_bangunan": "SDI-C117-117", "fungsi_bangunan": "Rumah Tinggal", "jumlah_lantai": 1, "index_right": null, "footprint_id": null, "SHAPE_Area": null }, "geometry": { "type": "Point", "coordinates": [ 105.23486, -5.552719 ] } },
{ "type": "Feature", "properties": { "nomor": 245, "id_bangunan": "Blok D (SDI-D04-004)", "fungsi_bangunan": "Rumah Tinggal", "jumlah_lantai": 1, "index_right": null, "footprint_id": null, "SHAPE_Area": null }, "geometry": { "type": "Point", "coordinates": [ 105.242271, -5.553242778 ] } },
{ "type": "Feature", "properties": { "nomor": 246, "id_bangunan": "Blok D (SDI-D05-005)", "fungsi_bangunan": "Rumah Tinggal", "jumlah_lantai": 1, "index_right": null, "footprint_id": null, "SHAPE_Area": null }, "geometry": { "type": "Point", "coordinates": [ 105.242354, -5.55394181 ] } },
{ "type": "Feature", "properties": { "nomor": 247, "id_bangunan": "Blok D (SDI-D06-006)", "fungsi_bangunan": "Rumah Tinggal", "jumlah_lantai": 1, "index_right": null, "footprint_id": null, "SHAPE_Area": null }, "geometry": { "type": "Point", "coordinates": [ 105.242487, -5.553840586 ] } },
{ "type": "Feature", "properties": { "nomor": 251, "id_bangunan": "Blok D (SDI-D10-010)", "fungsi_bangunan": "Rumah Tinggal", "jumlah_lantai": 1, "index_right": null, "footprint_id": null, "SHAPE_Area": null }, "geometry": { "type": "Point", "coordinates": [ 105.243074, -5.554249708 ] } },
{ "type": "Feature", "properties": { "nomor": 252, "id_bangunan": "Blok D (SDI-D11-011)", "fungsi_bangunan": "Rumah Tinggal", "jumlah_lantai": 1, "index_right": null, "footprint_id": null, "SHAPE_Area": null }, "geometry": { "type": "Point", "coordinates": [ 105.243524, -5.55408859 ] } },
{ "type": "Feature", "properties": { "nomor": 257, "id_bangunan": "Blok D (SDI-D16-016)", "fungsi_bangunan": "Rumah Tinggal", "jumlah_lantai": 1, "index_right": null, "footprint_id": null, "SHAPE_Area": null }, "geometry": { "type": "Point", "coordinates": [ 105.244075, -5.554488525 ] } },
{ "type": "Feature", "properties": { "nomor": 258, "id_bangunan": "Blok D (SDI-D17-017)", "fungsi_bangunan": "Rumah Tinggal", "jumlah_lantai": 1, "index_right": null, "footprint_id": null, "SHAPE_Area": null }, "geometry": { "type": "Point", "coordinates": [ 105.244166, -5.554810429 ] } },
{ "type": "Feature", "properties": { "nomor": 259, "id_bangunan": "Blok D (SDI-D18-018)", "fungsi_bangunan": "Rumah Tinggal", "jumlah_lantai": 1, "index_right": null, "footprint_id": null, "SHAPE_Area": null }, "geometry": { "type": "Point", "coordinates": [ 105.244107, -5.555109389 ] } },
{ "type": "Feature", "properties": { "nomor": 260, "id_bangunan": "Blok D (SDI-D19-019)", "fungsi_bangunan": "Rumah Tinggal", "jumlah_lantai": 1, "index_right": null, "footprint_id": null, "SHAPE_Area": null }, "geometry": { "type": "Point", "coordinates": [ 105.244153, -5.555109374 ] } },
{ "type": "Feature", "properties": { "nomor": 261, "id_bangunan": "Blok D (SDI-D20-020)", "fungsi_bangunan": "Rumah Tinggal", "jumlah_lantai": 1, "index_right": null, "footprint_id": null, "SHAPE_Area": null }, "geometry": { "type": "Point", "coordinates": [ 105.244368, -5.555072509 ] } },
{ "type": "Feature", "properties": { "nomor": 263, "id_bangunan": "Blok D (SDI-D23-023)", "fungsi_bangunan": "Rumah Tinggal", "jumlah_lantai": 1, "index_right": null, "footprint_id": null, "SHAPE_Area": null }, "geometry": { "type": "Point", "coordinates": [ 105.24419, -5.555339315 ] } },
{ "type": "Feature", "properties": { "nomor": 269, "id_bangunan": "Blok D (SDI-D29-029)", "fungsi_bangunan": "Rumah Tinggal", "jumlah_lantai": 1, "index_right": null, "footprint_id": null, "SHAPE_Area": null }, "geometry": { "type": "Point", "coordinates": [ 105.244676, -5.555720875 ] } },
{ "type": "Feature", "properties": { "nomor": 273, "id_bangunan": "Blok D (SDI-D33-033)", "fungsi_bangunan": "Rumah Tinggal", "jumlah_lantai": 1, "index_right": null, "footprint_id": null, "SHAPE_Area": null }, "geometry": { "type": "Point", "coordinates": [ 105.24464, -5.556171597 ] } },
{ "type": "Feature", "properties": { "nomor": 276, "id_bangunan": "SDI-D50-050", "fungsi_bangunan": "Rumah Tinggal", "jumlah_lantai": 1, "index_right": null, "footprint_id": null, "SHAPE_Area": null }, "geometry": { "type": "Point", "coordinates": [ 105.24085, -5.553495 ] } },
{ "type": "Feature", "properties": { "nomor": 278, "id_bangunan": "SDI-D53-053", "fungsi_bangunan": "Rumah Tinggal", "jumlah_lantai": 1, "index_right": null, "footprint_id": null, "SHAPE_Area": null }, "geometry": { "type": "Point", "coordinates": [ 105.241094, -5.553808 ] } },
{ "type": "Feature", "properties": { "nomor": 280, "id_bangunan": "SDI-D54-054", "fungsi_bangunan": "Rumah Tinggal", "jumlah_lantai": 1, "index_right": null, "footprint_id": null, "SHAPE_Area": null }, "geometry": { "type": "Point", "coordinates": [ 105.241097, -5.553741 ] } },
{ "type": "Feature", "properties": { "nomor": 283, "id_bangunan": "SDI-D55-055", "fungsi_bangunan": "Rumah Tinggal", "jumlah_lantai": 1, "index_right": null, "footprint_id": null, "SHAPE_Area": null }, "geometry": { "type": "Point", "coordinates": [ 105.241315, -5.5537 ] } },
{ "type": "Feature", "properties": { "nomor": 284, "id_bangunan": "Blok D (SDI-D40-040)", "fungsi_bangunan": "Rumah Tinggal", "jumlah_lantai": 1, "index_right": null, "footprint_id": null, "SHAPE_Area": null }, "geometry": { "type": "Point", "coordinates": [ 105.245003, -5.558066293 ] } },
{ "type": "Feature", "properties": { "nomor": 288, "id_bangunan": "Blok D (SDI-D44-044)", "fungsi_bangunan": "Rumah Tinggal", "jumlah_lantai": 1, "index_right": null, "footprint_id": null, "SHAPE_Area": null }, "geometry": { "type": "Point", "coordinates": [ 105.24239, -5.553408305 ] } },
{ "type": "Feature", "properties": { "nomor": 290, "id_bangunan": "Blok D (SDI-D46-046)", "fungsi_bangunan": "Rumah Tinggal", "jumlah_lantai": 1, "index_right": null, "footprint_id": null, "SHAPE_Area": null }, "geometry": { "type": "Point", "coordinates": [ 105.242312, -5.552534506 ] } },
{ "type": "Feature", "properties": { "nomor": 293, "id_bangunan": "SDI-D01-056", "fungsi_bangunan": "Rumah Tinggal", "jumlah_lantai": 2, "index_right": null, "footprint_id": null, "SHAPE_Area": null }, "geometry": { "type": "Point", "coordinates": [ 105.240337, -5.554489 ] } },
{ "type": "Feature", "properties": { "nomor": 294, "id_bangunan": "SDI-D57-057", "fungsi_bangunan": "Rumah Tinggal", "jumlah_lantai": 1, "index_right": null, "footprint_id": null, "SHAPE_Area": null }, "geometry": { "type": "Point", "coordinates": [ 105.240221, -5.554381 ] } },
{ "type": "Feature", "properties": { "nomor": 295, "id_bangunan": "SDI-D59-059", "fungsi_bangunan": "Rumah Tinggal", "jumlah_lantai": 1, "index_right": null, "footprint_id": null, "SHAPE_Area": null }, "geometry": { "type": "Point", "coordinates": [ 105.24054, -5.553791 ] } },
{ "type": "Feature", "properties": { "nomor": 296, "id_bangunan": "SDI-D60-060", "fungsi_bangunan": "Rumah Tinggal", "jumlah_lantai": 1, "index_right": null, "footprint_id": null, "SHAPE_Area": null }, "geometry": { "type": "Point", "coordinates": [ 105.241163, -5.553904 ] } },
{ "type": "Feature", "properties": { "nomor": 297, "id_bangunan": "SDI-D61-061", "fungsi_bangunan": "Rumah Tinggal", "jumlah_lantai": 1, "index_right": null, "footprint_id": null, "SHAPE_Area": null }, "geometry": { "type": "Point", "coordinates": [ 105.241164, -5.553903 ] } },
{ "type": "Feature", "properties": { "nomor": 298, "id_bangunan": "SDI-D62-062", "fungsi_bangunan": "Rumah Tinggal", "jumlah_lantai": 1, "index_right": null, "footprint_id": null, "SHAPE_Area": null }, "geometry": { "type": "Point", "coordinates": [ 105.2413, -5.554023 ] } },
{ "type": "Feature", "properties": { "nomor": 299, "id_bangunan": "SDI-D63-063", "fungsi_bangunan": "Rumah Tinggal", "jumlah_lantai": 1, "index_right": null, "footprint_id": null, "SHAPE_Area": null }, "geometry": { "type": "Point", "coordinates": [ 105.24129, -5.554003 ] } },
{ "type": "Feature", "properties": { "nomor": 302, "id_bangunan": "SDI-D66-066", "fungsi_bangunan": "Rumah Tinggal", "jumlah_lantai": 1, "index_right": null, "footprint_id": null, "SHAPE_Area": null }, "geometry": { "type": "Point", "coordinates": [ 105.24128, -5.554075 ] } },
{ "type": "Feature", "properties": { "nomor": 303, "id_bangunan": "BLOK D (SDI-D67-067)", "fungsi_bangunan": "Rumah Tinggal", "jumlah_lantai": 1, "index_right": null, "footprint_id": null, "SHAPE_Area": null }, "geometry": { "type": "Point", "coordinates": [ 105.240078, -5.554182 ] } },
{ "type": "Feature", "properties": { "nomor": 304, "id_bangunan": "BLOK D (SDI-D69-069)", "fungsi_bangunan": "Rumah Tinggal", "jumlah_lantai": 1, "index_right": null, "footprint_id": null, "SHAPE_Area": null }, "geometry": { "type": "Point", "coordinates": [ 105.24041, -5.554683 ] } },
{ "type": "Feature", "properties": { "nomor": 305, "id_bangunan": "BLOK D (SDI-D70-070)", "fungsi_bangunan": "Rumah Tinggal", "jumlah_lantai": 1, "index_right": null, "footprint_id": null, "SHAPE_Area": null }, "geometry": { "type": "Point", "coordinates": [ 105.240846, -5.554838 ] } },
{ "type": "Feature", "properties": { "nomor": 306, "id_bangunan": "BLOK D (SDI-D71-071)", "fungsi_bangunan": "Rumah Tinggal", "jumlah_lantai": 1, "index_right": null, "footprint_id": null, "SHAPE_Area": null }, "geometry": { "type": "Point", "coordinates": [ 105.240907, -5.554811 ] } },
{ "type": "Feature", "properties": { "nomor": 307, "id_bangunan": "BLOK D (SDI-D72-072)", "fungsi_bangunan": "Rumah Tinggal", "jumlah_lantai": 1, "index_right": null, "footprint_id": null, "SHAPE_Area": null }, "geometry": { "type": "Point", "coordinates": [ 105.240587, -5.554897 ] } },
{ "type": "Feature", "properties": { "nomor": 308, "id_bangunan": "BLOK D (SDI-D73-073)", "fungsi_bangunan": "Rumah Tinggal", "jumlah_lantai": 1, "index_right": null, "footprint_id": null, "SHAPE_Area": null }, "geometry": { "type": "Point", "coordinates": [ 105.240708, -5.555048 ] } },
{ "type": "Feature", "properties": { "nomor": 309, "id_bangunan": "BLOK D (SDI-D74-074)", "fungsi_bangunan": "Rumah Tinggal", "jumlah_lantai": 1, "index_right": null, "footprint_id": null, "SHAPE_Area": null }, "geometry": { "type": "Point", "coordinates": [ 105.241056, -5.554716 ] } },
{ "type": "Feature", "properties": { "nomor": 310, "id_bangunan": "BLOK D (SDI-D75-075)", "fungsi_bangunan": "Rumah Tinggal", "jumlah_lantai": 1, "index_right": null, "footprint_id": null, "SHAPE_Area": null }, "geometry": { "type": "Point", "coordinates": [ 105.241172, -5.554612 ] } },
{ "type": "Feature", "properties": { "nomor": 311, "id_bangunan": "Blok D (SDI-D78-078)", "fungsi_bangunan": "Rumah Tinggal", "jumlah_lantai": 1, "index_right": null, "footprint_id": null, "SHAPE_Area": null }, "geometry": { "type": "Point", "coordinates": [ 105.241306, -5.554491 ] } },
{ "type": "Feature", "properties": { "nomor": 312, "id_bangunan": "Blok D (SDI-D79-079)", "fungsi_bangunan": "Rumah Tinggal", "jumlah_lantai": 1, "index_right": null, "footprint_id": null, "SHAPE_Area": null }, "geometry": { "type": "Point", "coordinates": [ 105.241329, -5.554482 ] } },
{ "type": "Feature", "properties": { "nomor": 313, "id_bangunan": "Blok D (SDI-D80-080)", "fungsi_bangunan": "Rumah Tinggal", "jumlah_lantai": 1, "index_right": null, "footprint_id": null, "SHAPE_Area": null }, "geometry": { "type": "Point", "coordinates": [ 105.241456, -5.554378 ] } },
{ "type": "Feature", "properties": { "nomor": 314, "id_bangunan": "Blok D (SDI-D81-081)", "fungsi_bangunan": "Rumah Tinggal", "jumlah_lantai": 1, "index_right": null, "footprint_id": null, "SHAPE_Area": null }, "geometry": { "type": "Point", "coordinates": [ 105.24074, -5.554988 ] } },
{ "type": "Feature", "properties": { "nomor": 315, "id_bangunan": "Blok D (SDI-D82-082)", "fungsi_bangunan": "Rumah Tinggal", "jumlah_lantai": 1, "index_right": null, "footprint_id": null, "SHAPE_Area": null }, "geometry": { "type": "Point", "coordinates": [ 105.240759, -5.555002 ] } },
{ "type": "Feature", "properties": { "nomor": 316, "id_bangunan": "Blok D (SDI-D83-083)", "fungsi_bangunan": "Rumah Tinggal", "jumlah_lantai": 1, "index_right": null, "footprint_id": null, "SHAPE_Area": null }, "geometry": { "type": "Point", "coordinates": [ 105.240808, -5.555157 ] } },
{ "type": "Feature", "properties": { "nomor": 317, "id_bangunan": "Blok D (SDI-D84-084)", "fungsi_bangunan": "Rumah Tinggal", "jumlah_lantai": 1, "index_right": null, "footprint_id": null, "SHAPE_Area": null }, "geometry": { "type": "Point", "coordinates": [ 105.240798, -5.555124 ] } },
{ "type": "Feature", "properties": { "nomor": 318, "id_bangunan": "Blok D (SDI-D86-086)", "fungsi_bangunan": "Rumah Tinggal", "jumlah_lantai": 1, "index_right": null, "footprint_id": null, "SHAPE_Area": null }, "geometry": { "type": "Point", "coordinates": [ 105.240861, -5.555215 ] } },
{ "type": "Feature", "properties": { "nomor": 319, "id_bangunan": "Blok D (SDI-D88-088)", "fungsi_bangunan": "Rumah Tinggal", "jumlah_lantai": 1, "index_right": null, "footprint_id": null, "SHAPE_Area": null }, "geometry": { "type": "Point", "coordinates": [ 105.24096, -5.555378 ] } },
{ "type": "Feature", "properties": { "nomor": 320, "id_bangunan": "Blok D (SDI-D89-089)", "fungsi_bangunan": "Rumah Tinggal", "jumlah_lantai": 1, "index_right": null, "footprint_id": null, "SHAPE_Area": null }, "geometry": { "type": "Point", "coordinates": [ 105.240913, -5.555304 ] } },
{ "type": "Feature", "properties": { "nomor": 321, "id_bangunan": "Blok D (SDI-D90-090)", "fungsi_bangunan": "Rumah Tinggal", "jumlah_lantai": 1, "index_right": null, "footprint_id": null, "SHAPE_Area": null }, "geometry": { "type": "Point", "coordinates": [ 105.241005, -5.555425 ] } },
{ "type": "Feature", "properties": { "nomor": 322, "id_bangunan": "Blok D (SDI-D91-091)", "fungsi_bangunan": "Rumah Tinggal", "jumlah_lantai": 1, "index_right": null, "footprint_id": null, "SHAPE_Area": null }, "geometry": { "type": "Point", "coordinates": [ 105.240974, -5.555392 ] } },
{ "type": "Feature", "properties": { "nomor": 323, "id_bangunan": "Blok D (SDI-D92-092)", "fungsi_bangunan": "Rumah Tinggal", "jumlah_lantai": 1, "index_right": null, "footprint_id": null, "SHAPE_Area": null }, "geometry": { "type": "Point", "coordinates": [ 105.241085, -5.555602 ] } },
{ "type": "Feature", "properties": { "nomor": 324, "id_bangunan": "Blok D (SDI-D93-093)", "fungsi_bangunan": "Rumah Tinggal", "jumlah_lantai": 1, "index_right": null, "footprint_id": null, "SHAPE_Area": null }, "geometry": { "type": "Point", "coordinates": [ 105.241021, -5.555493 ] } },
{ "type": "Feature", "properties": { "nomor": 325, "id_bangunan": "Blok D (SDI-D94-094)", "fungsi_bangunan": "Rumah Tinggal", "jumlah_lantai": 1, "index_right": null, "footprint_id": null, "SHAPE_Area": null }, "geometry": { "type": "Point", "coordinates": [ 105.241156, -5.555734 ] } },
{ "type": "Feature", "properties": { "nomor": 326, "id_bangunan": "Blok D (SDI-D95-095)", "fungsi_bangunan": "Rumah Tinggal", "jumlah_lantai": 1, "index_right": null, "footprint_id": null, "SHAPE_Area": null }, "geometry": { "type": "Point", "coordinates": [ 105.241129, -5.555688 ] } },
{ "type": "Feature", "properties": { "nomor": 327, "id_bangunan": "Blok D (SDI-D96-096)", "fungsi_bangunan": "Rumah Tinggal", "jumlah_lantai": 1, "index_right": null, "footprint_id": null, "SHAPE_Area": null }, "geometry": { "type": "Point", "coordinates": [ 105.241112, -5.555564 ] } },
{ "type": "Feature", "properties": { "nomor": 328, "id_bangunan": "Blok D (SDI-D97-097)", "fungsi_bangunan": "Rumah Tinggal", "jumlah_lantai": 1, "index_right": null, "footprint_id": null, "SHAPE_Area": null }, "geometry": { "type": "Point", "coordinates": [ 105.241179, -5.555777 ] } },
{ "type": "Feature", "properties": { "nomor": 329, "id_bangunan": "Blok D (SDI-D98-098)", "fungsi_bangunan": "Rumah Tinggal", "jumlah_lantai": 1, "index_right": null, "footprint_id": null, "SHAPE_Area": null }, "geometry": { "type": "Point", "coordinates": [ 105.241178, -5.555777 ] } },
{ "type": "Feature", "properties": { "nomor": 330, "id_bangunan": "Blok D (SDI-D99-099)", "fungsi_bangunan": "Rumah Tinggal", "jumlah_lantai": 1, "index_right": null, "footprint_id": null, "SHAPE_Area": null }, "geometry": { "type": "Point", "coordinates": [ 105.241161, -5.555738 ] } },
{ "type": "Feature", "properties": { "nomor": 331, "id_bangunan": "Blok D (SDI-D100-100)", "fungsi_bangunan": "Rumah Tinggal", "jumlah_lantai": 2, "index_right": null, "footprint_id": null, "SHAPE_Area": null }, "geometry": { "type": "Point", "coordinates": [ 105.241449, -5.556175 ] } },
{ "type": "Feature", "properties": { "nomor": 333, "id_bangunan": "Blok D (SDI-D102-102)", "fungsi_bangunan": "Rumah Tinggal", "jumlah_lantai": 1, "index_right": null, "footprint_id": null, "SHAPE_Area": null }, "geometry": { "type": "Point", "coordinates": [ 105.241348, -5.555945 ] } },
{ "type": "Feature", "properties": { "nomor": 334, "id_bangunan": "Blok D (SDI-D103-103)", "fungsi_bangunan": "Rumah Tinggal", "jumlah_lantai": 1, "index_right": null, "footprint_id": null, "SHAPE_Area": null }, "geometry": { "type": "Point", "coordinates": [ 105.241755, -5.556578 ] } },
{ "type": "Feature", "properties": { "nomor": 335, "id_bangunan": "Blok D (SDI-D105-105)", "fungsi_bangunan": "Rumah Tinggal", "jumlah_lantai": 1, "index_right": null, "footprint_id": null, "SHAPE_Area": null }, "geometry": { "type": "Point", "coordinates": [ 105.241535, -5.55629 ] } },
{ "type": "Feature", "properties": { "nomor": 341, "id_bangunan": "SDI-A75-075", "fungsi_bangunan": "Rumah Tinggal", "jumlah_lantai": 1, "index_right": null, "footprint_id": null, "SHAPE_Area": null }, "geometry": { "type": "Point", "coordinates": [ 105.226934, -5.546788 ] } },
{ "type": "Feature", "properties": { "nomor": 345, "id_bangunan": "SDI-A79-079", "fungsi_bangunan": "Rumah Tinggal", "jumlah_lantai": 1, "index_right": null, "footprint_id": null, "SHAPE_Area": null }, "geometry": { "type": "Point", "coordinates": [ 105.226631, -5.546775 ] } },
{ "type": "Feature", "properties": { "nomor": 348, "id_bangunan": "SDI-A87-087", "fungsi_bangunan": "Rumah Tinggal", "jumlah_lantai": 1, "index_right": null, "footprint_id": null, "SHAPE_Area": null }, "geometry": { "type": "Point", "coordinates": [ 105.225649, -5.544981 ] } },
{ "type": "Feature", "properties": { "nomor": 354, "id_bangunan": "SDI-A94-094", "fungsi_bangunan": "Rumah Tinggal", "jumlah_lantai": 1, "index_right": null, "footprint_id": null, "SHAPE_Area": null }, "geometry": { "type": "Point", "coordinates": [ 105.22522, -5.543852 ] } },
{ "type": "Feature", "properties": { "nomor": 356, "id_bangunan": "BLOK D (SDI-D106-106)", "fungsi_bangunan": "Rumah Tinggal", "jumlah_lantai": 1, "index_right": null, "footprint_id": null, "SHAPE_Area": null }, "geometry": { "type": "Point", "coordinates": [ 105.241897, -5.556824 ] } },
{ "type": "Feature", "properties": { "nomor": 357, "id_bangunan": "Blok D (SDI-D107-107)", "fungsi_bangunan": "Rumah Tinggal", "jumlah_lantai": 1, "index_right": null, "footprint_id": null, "SHAPE_Area": null }, "geometry": { "type": "Point", "coordinates": [ 105.241859, -5.55675 ] } },
{ "type": "Feature", "properties": { "nomor": 358, "id_bangunan": "Blok D (SDI-D108-108)", "fungsi_bangunan": "Rumah Tinggal", "jumlah_lantai": 1, "index_right": null, "footprint_id": null, "SHAPE_Area": null }, "geometry": { "type": "Point", "coordinates": [ 105.241776, -5.556644 ] } },
{ "type": "Feature", "properties": { "nomor": 359, "id_bangunan": "Blok D (SDI-D109-109)", "fungsi_bangunan": "Rumah Tinggal", "jumlah_lantai": 1, "index_right": null, "footprint_id": null, "SHAPE_Area": null }, "geometry": { "type": "Point", "coordinates": [ 105.24219, -5.557655 ] } },
{ "type": "Feature", "properties": { "nomor": 360, "id_bangunan": "Blok D (SDI-D111-111)", "fungsi_bangunan": "Rumah Tinggal", "jumlah_lantai": 1, "index_right": null, "footprint_id": null, "SHAPE_Area": null }, "geometry": { "type": "Point", "coordinates": [ 105.241953, -5.556967 ] } },
{ "type": "Feature", "properties": { "nomor": 361, "id_bangunan": "Blok D (SDI-D112-112)", "fungsi_bangunan": "Rumah Tinggal", "jumlah_lantai": 1, "index_right": null, "footprint_id": null, "SHAPE_Area": null }, "geometry": { "type": "Point", "coordinates": [ 105.241942, -5.556895 ] } },
{ "type": "Feature", "properties": { "nomor": 362, "id_bangunan": "Blok D (SDI-D113-113)", "fungsi_bangunan": "Rumah Tinggal", "jumlah_lantai": 1, "index_right": null, "footprint_id": null, "SHAPE_Area": null }, "geometry": { "type": "Point", "coordinates": [ 105.242256, -5.558196 ] } },
{ "type": "Feature", "properties": { "nomor": 363, "id_bangunan": "Blok D (SDI-D114-114)", "fungsi_bangunan": "Rumah Tinggal", "jumlah_lantai": 1, "index_right": null, "footprint_id": null, "SHAPE_Area": null }, "geometry": { "type": "Point", "coordinates": [ 105.242243, -5.558148 ] } },
{ "type": "Feature", "properties": { "nomor": 364, "id_bangunan": "Blok D (SDI-D115-115)", "fungsi_bangunan": "Rumah Tinggal", "jumlah_lantai": 1, "index_right": null, "footprint_id": null, "SHAPE_Area": null }, "geometry": { "type": "Point", "coordinates": [ 105.242238, -5.558052 ] } },
{ "type": "Feature", "properties": { "nomor": 366, "id_bangunan": "Blok D (SDI-D118-118)", "fungsi_bangunan": "Rumah Tinggal", "jumlah_lantai": 1, "index_right": null, "footprint_id": null, "SHAPE_Area": null }, "geometry": { "type": "Point", "coordinates": [ 105.242269, -5.558293 ] } },
{ "type": "Feature", "properties": { "nomor": 378, "id_bangunan": "Blok D (SDI-D128-128)", "fungsi_bangunan": "Rumah Tinggal", "jumlah_lantai": 1, "index_right": null, "footprint_id": null, "SHAPE_Area": null }, "geometry": { "type": "Point", "coordinates": [ 105.242363, -5.558644 ] } },
{ "type": "Feature", "properties": { "nomor": 381, "id_bangunan": "Blok D (SDI-D130-130)", "fungsi_bangunan": "Rumah Tinggal", "jumlah_lantai": 1, "index_right": null, "footprint_id": null, "SHAPE_Area": null }, "geometry": { "type": "Point", "coordinates": [ 105.242163, -5.558884 ] } },
{ "type": "Feature", "properties": { "nomor": 383, "id_bangunan": "Blok D (SDI-D131-131)", "fungsi_bangunan": "Rumah Tinggal", "jumlah_lantai": 1, "index_right": null, "footprint_id": null, "SHAPE_Area": null }, "geometry": { "type": "Point", "coordinates": [ 105.242214, -5.558873 ] } },
{ "type": "Feature", "properties": { "nomor": 385, "id_bangunan": "Blok D (SDI-D132-132)", "fungsi_bangunan": "Rumah Tinggal", "jumlah_lantai": 1, "index_right": null, "footprint_id": null, "SHAPE_Area": null }, "geometry": { "type": "Point", "coordinates": [ 105.242265, -5.558812 ] } },
{ "type": "Feature", "properties": { "nomor": 391, "id_bangunan": "Blok D (SDI-D136-136)", "fungsi_bangunan": "Rumah Tinggal", "jumlah_lantai": 1, "index_right": null, "footprint_id": null, "SHAPE_Area": null }, "geometry": { "type": "Point", "coordinates": [ 105.242107, -5.55891 ] } },
{ "type": "Feature", "properties": { "nomor": 392, "id_bangunan": "Blok C (SDI-C126-126)", "fungsi_bangunan": "Rumah Tinggal", "jumlah_lantai": 1, "index_right": null, "footprint_id": null, "SHAPE_Area": null }, "geometry": { "type": "Point", "coordinates": [ 105.232203, -5.552499 ] } },
{ "type": "Feature", "properties": { "nomor": 393, "id_bangunan": "Blok D (SDI-D137-137)", "fungsi_bangunan": "Rumah Tinggal", "jumlah_lantai": 1, "index_right": null, "footprint_id": null, "SHAPE_Area": null }, "geometry": { "type": "Point", "coordinates": [ 105.242124, -5.558904 ] } },
{ "type": "Feature", "properties": { "nomor": 394, "id_bangunan": "Blok D (SDI-D139-139)", "fungsi_bangunan": "Rumah Tinggal", "jumlah_lantai": 1, "index_right": null, "footprint_id": null, "SHAPE_Area": null }, "geometry": { "type": "Point", "coordinates": [ 105.240688, -5.554301 ] } },
{ "type": "Feature", "properties": { "nomor": 396, "id_bangunan": "Blok D (SDI-D140-140)", "fungsi_bangunan": "Rumah Tinggal", "jumlah_lantai": 1, "index_right": null, "footprint_id": null, "SHAPE_Area": null }, "geometry": { "type": "Point", "coordinates": [ 105.241971, -5.554327 ] } },
{ "type": "Feature", "properties": { "nomor": 398, "id_bangunan": "Blok D (SDI-D141-141)", "fungsi_bangunan": "Rumah Tinggal", "jumlah_lantai": 2, "index_right": null, "footprint_id": null, "SHAPE_Area": null }, "geometry": { "type": "Point", "coordinates": [ 105.242181, -5.559473 ] } },
{ "type": "Feature", "properties": { "nomor": 400, "id_bangunan": "Blok C (SDI-C131-131)", "fungsi_bangunan": "Rumah Tinggal", "jumlah_lantai": 1, "index_right": null, "footprint_id": null, "SHAPE_Area": null }, "geometry": { "type": "Point", "coordinates": [ 105.232741, -5.553602 ] } },
{ "type": "Feature", "properties": { "nomor": 401, "id_bangunan": "Blok C (SDI-C133-133)", "fungsi_bangunan": "Rumah Tinggal", "jumlah_lantai": 1, "index_right": null, "footprint_id": null, "SHAPE_Area": null }, "geometry": { "type": "Point", "coordinates": [ 105.232882, -5.552059 ] } },
{ "type": "Feature", "properties": { "nomor": 402, "id_bangunan": "Blok B (SDI-B96-096)", "fungsi_bangunan": "Rumah Tinggal", "jumlah_lantai": 1, "index_right": null, "footprint_id": null, "SHAPE_Area": null }, "geometry": { "type": "Point", "coordinates": [ 105.231703, -5.550323 ] } },
{ "type": "Feature", "properties": { "nomor": 411, "id_bangunan": "Blok B (SDI-B105-105)", "fungsi_bangunan": "Rumah Tinggal", "jumlah_lantai": 1, "index_right": null, "footprint_id": null, "SHAPE_Area": null }, "geometry": { "type": "Point", "coordinates": [ 105.230689, -5.551492 ] } },
{ "type": "Feature", "properties": { "nomor": 423, "id_bangunan": "Blok B (SDI-B118-118)", "fungsi_bangunan": "Rumah Tinggal", "jumlah_lantai": 1, "index_right": null, "footprint_id": null, "SHAPE_Area": null }, "geometry": { "type": "Point", "coordinates": [ 105.228953, -5.546434 ] } },
{ "type": "Feature", "properties": { "nomor": 425, "id_bangunan": "Blok B (SDI-B120-120)", "fungsi_bangunan": "Rumah Tinggal", "jumlah_lantai": 1, "index_right": null, "footprint_id": null, "SHAPE_Area": null }, "geometry": { "type": "Point", "coordinates": [ 105.228838, -5.546181 ] } },
{ "type": "Feature", "properties": { "nomor": 427, "id_bangunan": "Blok B (SDI-B123-123)", "fungsi_bangunan": "Rumah Tinggal", "jumlah_lantai": 1, "index_right": null, "footprint_id": null, "SHAPE_Area": null }, "geometry": { "type": "Point", "coordinates": [ 105.229168, -5.546483 ] } },
{ "type": "Feature", "properties": { "nomor": 432, "id_bangunan": "Blok B (SDI-B128-128)", "fungsi_bangunan": "Rumah Tinggal", "jumlah_lantai": 1, "index_right": null, "footprint_id": null, "SHAPE_Area": null }, "geometry": { "type": "Point", "coordinates": [ 105.230178, -5.546484 ] } },
{ "type": "Feature", "properties": { "nomor": 436, "id_bangunan": "Blok B (SDI-B132-132)", "fungsi_bangunan": "Rumah Tinggal", "jumlah_lantai": 1, "index_right": null, "footprint_id": null, "SHAPE_Area": null }, "geometry": { "type": "Point", "coordinates": [ 105.228393, -5.546576 ] } },
{ "type": "Feature", "properties": { "nomor": 441, "id_bangunan": "Blok B (SDI-B136-136)", "fungsi_bangunan": "Rumah Tinggal", "jumlah_lantai": 1, "index_right": null, "footprint_id": null, "SHAPE_Area": null }, "geometry": { "type": "Point", "coordinates": [ 105.228017, -5.545988 ] } },
{ "type": "Feature", "properties": { "nomor": 444, "id_bangunan": "Blok B (SDI-B139-139)", "fungsi_bangunan": "Rumah Tinggal", "jumlah_lantai": 1, "index_right": null, "footprint_id": null, "SHAPE_Area": null }, "geometry": { "type": "Point", "coordinates": [ 105.227888, -5.546245 ] } },
{ "type": "Feature", "properties": { "nomor": 446, "id_bangunan": "Blok B (SDI-B140-140)", "fungsi_bangunan": "Rumah Tinggal", "jumlah_lantai": 1, "index_right": null, "footprint_id": null, "SHAPE_Area": null }, "geometry": { "type": "Point", "coordinates": [ 105.228118, -5.546512 ] } },
{ "type": "Feature", "properties": { "nomor": 460, "id_bangunan": "Blok B (SDI-B155-155)", "fungsi_bangunan": "Rumah Tinggal", "jumlah_lantai": 1, "index_right": null, "footprint_id": null, "SHAPE_Area": null }, "geometry": { "type": "Point", "coordinates": [ 105.229312, -5.551851 ] } },
{ "type": "Feature", "properties": { "nomor": 464, "id_bangunan": "Blok B (SDI-B159-159)", "fungsi_bangunan": "Rumah Tinggal", "jumlah_lantai": 1, "index_right": null, "footprint_id": null, "SHAPE_Area": null }, "geometry": { "type": "Point", "coordinates": [ 105.228922, -5.551617 ] } },
{ "type": "Feature", "properties": { "nomor": 469, "id_bangunan": "Blok B (SDI-B164-164)", "fungsi_bangunan": "Rumah Tinggal", "jumlah_lantai": 1, "index_right": null, "footprint_id": null, "SHAPE_Area": null }, "geometry": { "type": "Point", "coordinates": [ 105.229124, -5.55187 ] } },
{ "type": "Feature", "properties": { "nomor": 470, "id_bangunan": "Blok B (SDI-B165-165)", "fungsi_bangunan": "Rumah Tinggal", "jumlah_lantai": 1, "index_right": null, "footprint_id": null, "SHAPE_Area": null }, "geometry": { "type": "Point", "coordinates": [ 105.229312, -5.551851 ] } },
{ "type": "Feature", "properties": { "nomor": 476, "id_bangunan": "Blok B (SDI-B171-171)", "fungsi_bangunan": "Rumah Tinggal", "jumlah_lantai": 1, "index_right": null, "footprint_id": null, "SHAPE_Area": null }, "geometry": { "type": "Point", "coordinates": [ 105.227922, -5.552942 ] } },
{ "type": "Feature", "properties": { "nomor": 478, "id_bangunan": "Blok C (SDI-C134-134)", "fungsi_bangunan": "Rumah Tinggal", "jumlah_lantai": 1, "index_right": null, "footprint_id": null, "SHAPE_Area": null }, "geometry": { "type": "Point", "coordinates": [ 105.236795, -5.553233 ] } },
{ "type": "Feature", "properties": { "nomor": 479, "id_bangunan": "Blok C (SDI-C135-135)", "fungsi_bangunan": "Rumah Tinggal", "jumlah_lantai": 1, "index_right": null, "footprint_id": null, "SHAPE_Area": null }, "geometry": { "type": "Point", "coordinates": [ 105.236691, -5.553139 ] } },
{ "type": "Feature", "properties": { "nomor": 480, "id_bangunan": "Blok C(SDI-C136-136)", "fungsi_bangunan": "Rumah Tinggal", "jumlah_lantai": 1, "index_right": null, "footprint_id": null, "SHAPE_Area": null }, "geometry": { "type": "Point", "coordinates": [ 105.236606, -5.553149 ] } },
{ "type": "Feature", "properties": { "nomor": 481, "id_bangunan": "Blok C (SDI-B137-137)", "fungsi_bangunan": "Rumah Tinggal", "jumlah_lantai": 1, "index_right": null, "footprint_id": null, "SHAPE_Area": null }, "geometry": { "type": "Point", "coordinates": [ 105.236458, -5.553228 ] } },
{ "type": "Feature", "properties": { "nomor": 482, "id_bangunan": "Blok C (SDI-C138-138)", "fungsi_bangunan": "Rumah Tinggal", "jumlah_lantai": 1, "index_right": null, "footprint_id": null, "SHAPE_Area": null }, "geometry": { "type": "Point", "coordinates": [ 105.236673, -5.55292 ] } },
{ "type": "Feature", "properties": { "nomor": 483, "id_bangunan": "Blok C (SDI-C139-139)", "fungsi_bangunan": "Rumah Tinggal", "jumlah_lantai": 1, "index_right": null, "footprint_id": null, "SHAPE_Area": null }, "geometry": { "type": "Point", "coordinates": [ 105.236721, -5.552822 ] } },
{ "type": "Feature", "properties": { "nomor": 484, "id_bangunan": "Blok C (SDI-C140-140)", "fungsi_bangunan": "Rumah Tinggal", "jumlah_lantai": 1, "index_right": null, "footprint_id": null, "SHAPE_Area": null }, "geometry": { "type": "Point", "coordinates": [ 105.236425, -5.552976 ] } },
{ "type": "Feature", "properties": { "nomor": 485, "id_bangunan": "Blok C (SDI-C141-141)", "fungsi_bangunan": "Rumah Tinggal", "jumlah_lantai": 1, "index_right": null, "footprint_id": null, "SHAPE_Area": null }, "geometry": { "type": "Point", "coordinates": [ 105.236524, -5.552764 ] } },
{ "type": "Feature", "properties": { "nomor": 486, "id_bangunan": "Blok C (SDI-C142-142)", "fungsi_bangunan": "Rumah Tinggal", "jumlah_lantai": 1, "index_right": null, "footprint_id": null, "SHAPE_Area": null }, "geometry": { "type": "Point", "coordinates": [ 105.236353, -5.55262 ] } },
{ "type": "Feature", "properties": { "nomor": 487, "id_bangunan": "Blok C (SDI-C143-143)", "fungsi_bangunan": "Rumah Tinggal", "jumlah_lantai": 1, "index_right": null, "footprint_id": null, "SHAPE_Area": null }, "geometry": { "type": "Point", "coordinates": [ 105.236276, -5.552405 ] } },
{ "type": "Feature", "properties": { "nomor": 488, "id_bangunan": "Blok C (SDI-C144-144)", "fungsi_bangunan": "Rumah Tinggal", "jumlah_lantai": 1, "index_right": null, "footprint_id": null, "SHAPE_Area": null }, "geometry": { "type": "Point", "coordinates": [ 105.236303, -5.552235 ] } },
{ "type": "Feature", "properties": { "nomor": 490, "id_bangunan": "Blok C(SDI-C146-146)", "fungsi_bangunan": "Rumah Tinggal", "jumlah_lantai": 1, "index_right": null, "footprint_id": null, "SHAPE_Area": null }, "geometry": { "type": "Point", "coordinates": [ 105.23642, -5.552394 ] } },
{ "type": "Feature", "properties": { "nomor": 492, "id_bangunan": "Blok C (SDI-C148-148)", "fungsi_bangunan": "Rumah Tinggal", "jumlah_lantai": 1, "index_right": null, "footprint_id": null, "SHAPE_Area": null }, "geometry": { "type": "Point", "coordinates": [ 105.233993, -5.551202 ] } },
{ "type": "Feature", "properties": { "nomor": 493, "id_bangunan": "Blok B(SDI-B174-174)", "fungsi_bangunan": "Rumah Tinggal", "jumlah_lantai": 1, "index_right": null, "footprint_id": null, "SHAPE_Area": null }, "geometry": { "type": "Point", "coordinates": [ 105.233909, -5.551222 ] } },
{ "type": "Feature", "properties": { "nomor": 494, "id_bangunan": "Blok B (SDI-B175-175)", "fungsi_bangunan": "Rumah Tinggal", "jumlah_lantai": 2, "index_right": null, "footprint_id": null, "SHAPE_Area": null }, "geometry": { "type": "Point", "coordinates": [ 105.233895, -5.551186 ] } },
{ "type": "Feature", "properties": { "nomor": 495, "id_bangunan": "Blok B (SDI-B176-176)", "fungsi_bangunan": "Rumah Tinggal", "jumlah_lantai": 1, "index_right": null, "footprint_id": null, "SHAPE_Area": null }, "geometry": { "type": "Point", "coordinates": [ 105.233749, -5.551346 ] } },
{ "type": "Feature", "properties": { "nomor": 496, "id_bangunan": "Blol B (SDI-B177-177)", "fungsi_bangunan": "Rumah Tinggal", "jumlah_lantai": 1, "index_right": null, "footprint_id": null, "SHAPE_Area": null }, "geometry": { "type": "Point", "coordinates": [ 105.233679, -5.551095 ] } },
{ "type": "Feature", "properties": { "nomor": 497, "id_bangunan": "Blok B (SDI-B178-178)", "fungsi_bangunan": "Rumah Tinggal", "jumlah_lantai": 1, "index_right": null, "footprint_id": null, "SHAPE_Area": null }, "geometry": { "type": "Point", "coordinates": [ 105.233623, -5.551067 ] } },
{ "type": "Feature", "properties": { "nomor": 498, "id_bangunan": "Blok B (SDI-B179-179)", "fungsi_bangunan": "Rumah Tinggal", "jumlah_lantai": 1, "index_right": null, "footprint_id": null, "SHAPE_Area": null }, "geometry": { "type": "Point", "coordinates": [ 105.233677, -5.55096 ] } },
{ "type": "Feature", "properties": { "nomor": 499, "id_bangunan": "Blok B (SDI-B180-180)", "fungsi_bangunan": "Rumah Tinggal", "jumlah_lantai": 1, "index_right": null, "footprint_id": null, "SHAPE_Area": null }, "geometry": { "type": "Point", "coordinates": [ 105.233364, -5.55102 ] } },
{ "type": "Feature", "properties": { "nomor": 500, "id_bangunan": "Blok B (SDI-B181-181)", "fungsi_bangunan": "Rumah Tinggal", "jumlah_lantai": 1, "index_right": null, "footprint_id": null, "SHAPE_Area": null }, "geometry": { "type": "Point", "coordinates": [ 105.233412, -5.551046 ] } },
{ "type": "Feature", "properties": { "nomor": 501, "id_bangunan": "Blok B (SDI-B182-182)", "fungsi_bangunan": "Rumah Tinggal", "jumlah_lantai": 1, "index_right": null, "footprint_id": null, "SHAPE_Area": null }, "geometry": { "type": "Point", "coordinates": [ 105.233263, -5.551161 ] } },
{ "type": "Feature", "properties": { "nomor": 502, "id_bangunan": "Blok B (SDI-B183-183)", "fungsi_bangunan": "Rumah Tinggal", "jumlah_lantai": 1, "index_right": null, "footprint_id": null, "SHAPE_Area": null }, "geometry": { "type": "Point", "coordinates": [ 105.233368, -5.550887 ] } },
{ "type": "Feature", "properties": { "nomor": 503, "id_bangunan": "Blok B-(SDI-B184-184)", "fungsi_bangunan": "Rumah Tinggal", "jumlah_lantai": 1, "index_right": null, "footprint_id": null, "SHAPE_Area": null }, "geometry": { "type": "Point", "coordinates": [ 105.233524, -5.550895 ] } },
{ "type": "Feature", "properties": { "nomor": 505, "id_bangunan": "SDI-C06-006", "fungsi_bangunan": "Rumah Tinggal dan Warung", "jumlah_lantai": 2, "index_right": null, "footprint_id": null, "SHAPE_Area": null }, "geometry": { "type": "Point", "coordinates": [ 105.234672, -5.552477 ] } },
{ "type": "Feature", "properties": { "nomor": 512, "id_bangunan": "Blok D (SDI-D85-085)", "fungsi_bangunan": "rumah tinggal dan warung", "jumlah_lantai": 1, "index_right": null, "footprint_id": null, "SHAPE_Area": null }, "geometry": { "type": "Point", "coordinates": [ 105.2409, -5.555287 ] } },
{ "type": "Feature", "properties": { "nomor": 513, "id_bangunan": "SDI-D10-010", "fungsi_bangunan": "Komersial", "jumlah_lantai": 1, "index_right": null, "footprint_id": null, "SHAPE_Area": null }, "geometry": { "type": "Point", "coordinates": [ 105.24, -5.5543 ] } },
{ "type": "Feature", "properties": { "nomor": 514, "id_bangunan": "Blok D (SDI-D104-104)", "fungsi_bangunan": "Komersial", "jumlah_lantai": 1, "index_right": null, "footprint_id": null, "SHAPE_Area": null }, "geometry": { "type": "Point", "coordinates": [ 105.241564, -5.556358 ] } },
{ "type": "Feature", "properties": { "nomor": 515, "id_bangunan": "SDI-B38-038", "fungsi_bangunan": "Penginapan", "jumlah_lantai": 1, "index_right": null, "footprint_id": null, "SHAPE_Area": null }, "geometry": { "type": "Point", "coordinates": [ 105.22949, -5.547045 ] } },
{ "type": "Feature", "properties": { "nomor": 516, "id_bangunan": "SDI-A07-007", "fungsi_bangunan": "Toko/Warung", "jumlah_lantai": 1, "index_right": null, "footprint_id": null, "SHAPE_Area": null }, "geometry": { "type": "Point", "coordinates": [ 105.227337, -5.544995 ] } },
{ "type": "Feature", "properties": { "nomor": 517, "id_bangunan": "SDI-C25-025", "fungsi_bangunan": "Toko/Warung", "jumlah_lantai": 1, "index_right": null, "footprint_id": null, "SHAPE_Area": null }, "geometry": { "type": "Point", "coordinates": [ 105.235019, -5.551725 ] } },
{ "type": "Feature", "properties": { "nomor": 519, "id_bangunan": "SD1-B03-003", "fungsi_bangunan": "Toko/Warung", "jumlah_lantai": 1, "index_right": null, "footprint_id": null, "SHAPE_Area": null }, "geometry": { "type": "Point", "coordinates": [ 105.229246, -5.547013387 ] } },
{ "type": "Feature", "properties": { "nomor": 520, "id_bangunan": "SDI-D04-004", "fungsi_bangunan": "Toko/Warung", "jumlah_lantai": 2, "index_right": null, "footprint_id": null, "SHAPE_Area": null }, "geometry": { "type": "Point", "coordinates": [ 105.242, -5.55288 ] } },
{ "type": "Feature", "properties": { "nomor": 521, "id_bangunan": "SDI-D05-005", "fungsi_bangunan": "Toko/Warung", "jumlah_lantai": 1, "index_right": null, "footprint_id": null, "SHAPE_Area": null }, "geometry": { "type": "Point", "coordinates": [ 105.2437, -5.55138 ] } },
{ "type": "Feature", "properties": { "nomor": 522, "id_bangunan": "SDI-B04–004", "fungsi_bangunan": "Toko/Warung", "jumlah_lantai": 1, "index_right": null, "footprint_id": null, "SHAPE_Area": null }, "geometry": { "type": "Point", "coordinates": [ 105.229407, -5.548437055 ] } },
{ "type": "Feature", "properties": { "nomor": 523, "id_bangunan": "SDI-D06-006", "fungsi_bangunan": "Toko/Warung", "jumlah_lantai": 1, "index_right": null, "footprint_id": null, "SHAPE_Area": null }, "geometry": { "type": "Point", "coordinates": [ 105.243, -5.55193 ] } },
{ "type": "Feature", "properties": { "nomor": 526, "id_bangunan": "SDI-D12-012", "fungsi_bangunan": "Toko/Warung", "jumlah_lantai": 1, "index_right": null, "footprint_id": null, "SHAPE_Area": null }, "geometry": { "type": "Point", "coordinates": [ 105.2411, -5.55373 ] } },
{ "type": "Feature", "properties": { "nomor": 527, "id_bangunan": "SDI-B37-037", "fungsi_bangunan": "Toko/Warung", "jumlah_lantai": 1, "index_right": null, "footprint_id": null, "SHAPE_Area": null }, "geometry": { "type": "Point", "coordinates": [ 105.229465, -5.547233 ] } },
{ "type": "Feature", "properties": { "nomor": 529, "id_bangunan": "SDI-C38-038", "fungsi_bangunan": "Toko/Warung", "jumlah_lantai": 1, "index_right": null, "footprint_id": null, "SHAPE_Area": null }, "geometry": { "type": "Point", "coordinates": [ 105.237412, -5.553008 ] } },
{ "type": "Feature", "properties": { "nomor": 532, "id_bangunan": "Blok C (SDI-C82-082)", "fungsi_bangunan": "Toko/Warung", "jumlah_lantai": 1, "index_right": null, "footprint_id": null, "SHAPE_Area": null }, "geometry": { "type": "Point", "coordinates": [ 105.236064, -5.553345 ] } },
{ "type": "Feature", "properties": { "nomor": 533, "id_bangunan": "Blok C (SDI-C88-088)", "fungsi_bangunan": "Toko/Warung", "jumlah_lantai": 1, "index_right": null, "footprint_id": null, "SHAPE_Area": null }, "geometry": { "type": "Point", "coordinates": [ 105.236275, -5.553713 ] } },
{ "type": "Feature", "properties": { "nomor": 535, "id_bangunan": "Blok D (SDI-D34-034)", "fungsi_bangunan": "Toko/Warung", "jumlah_lantai": 1, "index_right": null, "footprint_id": null, "SHAPE_Area": null }, "geometry": { "type": "Point", "coordinates": [ 105.244667, -5.556327956 ] } },
{ "type": "Feature", "properties": { "nomor": 536, "id_bangunan": "SDI-D51-051", "fungsi_bangunan": "Toko/Warung", "jumlah_lantai": 1, "index_right": null, "footprint_id": null, "SHAPE_Area": null }, "geometry": { "type": "Point", "coordinates": [ 105.240666, -5.553436 ] } },
{ "type": "Feature", "properties": { "nomor": 537, "id_bangunan": "Blok D (SDI-D76-076)", "fungsi_bangunan": "Toko/Warung", "jumlah_lantai": 1, "index_right": null, "footprint_id": null, "SHAPE_Area": null }, "geometry": { "type": "Point", "coordinates": [ 105.24121, -5.554582 ] } },
{ "type": "Feature", "properties": { "nomor": 538, "id_bangunan": "SDI-D77-077", "fungsi_bangunan": "Toko/Warung", "jumlah_lantai": 1, "index_right": null, "footprint_id": null, "SHAPE_Area": null }, "geometry": { "type": "Point", "coordinates": [ 105.241217, -5.554578 ] } },
{ "type": "Feature", "properties": { "nomor": 540, "id_bangunan": "Blok D (SDI-D138-138)", "fungsi_bangunan": "Toko/Warung", "jumlah_lantai": 1, "index_right": null, "footprint_id": null, "SHAPE_Area": null }, "geometry": { "type": "Point", "coordinates": [ 105.240685, -5.5543 ] } },
{ "type": "Feature", "properties": { "nomor": 541, "id_bangunan": "SDI-D58-058", "fungsi_bangunan": "TPQ", "jumlah_lantai": 1, "index_right": null, "footprint_id": null, "SHAPE_Area": null }, "geometry": { "type": "Point", "coordinates": [ 105.240366, -5.554567 ] } },
{ "type": "Feature", "properties": { "nomor": 542, "id_bangunan": "SDI-A17-017", "fungsi_bangunan": "Tempat Ibadah", "jumlah_lantai": 1, "index_right": null, "footprint_id": null, "SHAPE_Area": null }, "geometry": { "type": "Point", "coordinates": [ 105.225658, -5.544599 ] } },
{ "type": "Feature", "properties": { "nomor": 543, "id_bangunan": "SDI-D01-001", "fungsi_bangunan": "Tempat Ibadah", "jumlah_lantai": 1, "index_right": null, "footprint_id": null, "SHAPE_Area": null }, "geometry": { "type": "Point", "coordinates": [ 105.2517, -5.55774 ] } },
{ "type": "Feature", "properties": { "nomor": 544, "id_bangunan": "SDI-D02-002", "fungsi_bangunan": "Tempat Ibadah", "jumlah_lantai": 1, "index_right": null, "footprint_id": null, "SHAPE_Area": null }, "geometry": { "type": "Point", "coordinates": [ 105.2423, -5.55821 ] } },
{ "type": "Feature", "properties": { "nomor": 545, "id_bangunan": "SDI-D03-003", "fungsi_bangunan": "Tempat Ibadah", "jumlah_lantai": 1, "index_right": null, "footprint_id": null, "SHAPE_Area": null }, "geometry": { "type": "Point", "coordinates": [ 105.2442, -5.55511 ] } },
{ "type": "Feature", "properties": { "nomor": 546, "id_bangunan": "SDI-B06-006", "fungsi_bangunan": "Tempat Ibadah", "jumlah_lantai": 1, "index_right": null, "footprint_id": null, "SHAPE_Area": null }, "geometry": { "type": "Point", "coordinates": [ 105.229715, -5.549192553 ] } },
{ "type": "Feature", "properties": { "nomor": 547, "id_bangunan": "SDI-A36-036", "fungsi_bangunan": "Tempat Ibadah", "jumlah_lantai": 1, "index_right": null, "footprint_id": null, "SHAPE_Area": null }, "geometry": { "type": "Point", "coordinates": [ 105.225222, -5.544209 ] } },
{ "type": "Feature", "properties": { "nomor": 548, "id_bangunan": "SDI-C61-061", "fungsi_bangunan": "Tempat Ibadah", "jumlah_lantai": 1, "index_right": null, "footprint_id": null, "SHAPE_Area": null }, "geometry": { "type": "Point", "coordinates": [ 105.236512, -5.551476 ] } },
{ "type": "Feature", "properties": { "nomor": 550, "id_bangunan": "Blok D (SDI-D116-116)", "fungsi_bangunan": "Tempat Ibadah", "jumlah_lantai": 1, "index_right": null, "footprint_id": null, "SHAPE_Area": null }, "geometry": { "type": "Point", "coordinates": [ 105.242235, -5.558048 ] } },
{ "type": "Feature", "properties": { "nomor": 552, "id_bangunan": "Blok B (SDI-B154-154)", "fungsi_bangunan": "Tempat Ibadah", "jumlah_lantai": 1, "index_right": null, "footprint_id": null, "SHAPE_Area": null }, "geometry": { "type": "Point", "coordinates": [ 105.22878, -5.551355 ] } },
{ "type": "Feature", "properties": { "nomor": 553, "id_bangunan": "SDI-D07-007", "fungsi_bangunan": "Sekolah", "jumlah_lantai": 1, "index_right": null, "footprint_id": null, "SHAPE_Area": null }, "geometry": { "type": "Point", "coordinates": [ 105.2419, -5.55268 ] } },
{ "type": "Feature", "properties": { "nomor": 554, "id_bangunan": "SDI-D09-009", "fungsi_bangunan": "Sekolah", "jumlah_lantai": 1, "index_right": null, "footprint_id": null, "SHAPE_Area": null }, "geometry": { "type": "Point", "coordinates": [ 105.2402, -5.55451 ] } },
{ "type": "Feature", "properties": { "nomor": 555, "id_bangunan": "SDI-C60-060", "fungsi_bangunan": "Sekolah", "jumlah_lantai": 1, "index_right": null, "footprint_id": null, "SHAPE_Area": null }, "geometry": { "type": "Point", "coordinates": [ 105.236695, -5.55143 ] } },
{ "type": "Feature", "properties": { "nomor": 556, "id_bangunan": "BLOK D (SDI-D68-068)", "fungsi_bangunan": "Sekolah", "jumlah_lantai": 1, "index_right": null, "footprint_id": null, "SHAPE_Area": null }, "geometry": { "type": "Point", "coordinates": [ 105.240306, -5.554434 ] } },
{ "type": "Feature", "properties": { "nomor": 557, "id_bangunan": "SD1-B02-002", "fungsi_bangunan": "Fasilitas Kesehatan", "jumlah_lantai": 1, "index_right": null, "footprint_id": null, "SHAPE_Area": null }, "geometry": { "type": "Point", "coordinates": [ 105.229098, -5.547055571 ] } },
{ "type": "Feature", "properties": { "nomor": 558, "id_bangunan": "SDI-B45-045", "fungsi_bangunan": "Fasilitas Kesehatan", "jumlah_lantai": 1, "index_right": null, "footprint_id": null, "SHAPE_Area": null }, "geometry": { "type": "Point", "coordinates": [ 105.228799, -5.547214 ] } },
{ "type": "Feature", "properties": { "nomor": 559, "id_bangunan": "Blok D (SDI-D87-087)", "fungsi_bangunan": "Gedung Sekretariat / Bangunan Komunitas", "jumlah_lantai": 2, "index_right": null, "footprint_id": null, "SHAPE_Area": null }, "geometry": { "type": "Point", "coordinates": [ 105.240851, -5.555206 ] } },
{ "type": "Feature", "properties": { "nomor": 560, "id_bangunan": "SDI-D08-008", "fungsi_bangunan": "Kantor", "jumlah_lantai": 2, "index_right": null, "footprint_id": null, "SHAPE_Area": null }, "geometry": { "type": "Point", "coordinates": [ 105.2409, -5.55533 ] } },
{ "type": "Feature", "properties": { "nomor": 561, "id_bangunan": "Blok C (SDI-C87-087)", "fungsi_bangunan": "Pelayanan Umum", "jumlah_lantai": 1, "index_right": null, "footprint_id": null, "SHAPE_Area": null }, "geometry": { "type": "Point", "coordinates": [ 105.23625, -5.553774 ] } },
{ "type": "Feature", "properties": { "nomor": 567, "id_bangunan": "SDI-B05-005", "fungsi_bangunan": "Gudang", "jumlah_lantai": 1, "index_right": null, "footprint_id": null, "SHAPE_Area": null }, "geometry": { "type": "Point", "coordinates": [ 105.232324, -5.550287 ] } },
{ "type": "Feature", "properties": { "nomor": 569, "id_bangunan": "Blok D (SDI-D110-110)", "fungsi_bangunan": "Gudang", "jumlah_lantai": 2, "index_right": null, "footprint_id": null, "SHAPE_Area": null }, "geometry": { "type": "Point", "coordinates": [ 105.242186, -5.55755 ] } },
{ "type": "Feature", "properties": { "nomor": 571, "id_bangunan": "SDI-A95-095", "fungsi_bangunan": "Kandang Ayam", "jumlah_lantai": 1, "index_right": null, "footprint_id": null, "SHAPE_Area": null }, "geometry": { "type": "Point", "coordinates": [ 105.225124, -5.543884 ] } },
{ "type": "Feature", "properties": { "nomor": 572, "id_bangunan": "Blok A (SDI-A01-064)", "fungsi_bangunan": "Kandang Kambing", "jumlah_lantai": 1, "index_right": null, "footprint_id": null, "SHAPE_Area": null }, "geometry": { "type": "Point", "coordinates": [ 105.224276, -5.544057 ] } },
{ "type": "Feature", "properties": { "nomor": 573, "id_bangunan": "SDI-A73-073", "fungsi_bangunan": "Kandang Kambing", "jumlah_lantai": 1, "index_right": null, "footprint_id": null, "SHAPE_Area": null }, "geometry": { "type": "Point", "coordinates": [ 105.227168, -5.546416 ] } },
{ "type": "Feature", "properties": { "nomor": 575, "id_bangunan": "SDI-A80-080", "fungsi_bangunan": "Kandang Kambing", "jumlah_lantai": 1, "index_right": null, "footprint_id": null, "SHAPE_Area": null }, "geometry": { "type": "Point", "coordinates": [ 105.22675, -5.546816 ] } },
{ "type": "Feature", "properties": { "nomor": 577, "id_bangunan": "Blok C (SDI-C127-127)", "fungsi_bangunan": "Kandang Kambing", "jumlah_lantai": 1, "index_right": null, "footprint_id": null, "SHAPE_Area": null }, "geometry": { "type": "Point", "coordinates": [ 105.232483, -5.552738 ] } },
{ "type": "Feature", "properties": { "nomor": 578, "id_bangunan": "Blok C (SDI-C132-132)", "fungsi_bangunan": "Kandang Kambing", "jumlah_lantai": 1, "index_right": null, "footprint_id": null, "SHAPE_Area": null }, "geometry": { "type": "Point", "coordinates": [ 105.232675, -5.552247 ] } },
{ "type": "Feature", "properties": { "nomor": 579, "id_bangunan": "SDI-C28-028", "fungsi_bangunan": "Kandang Ternak", "jumlah_lantai": 1, "index_right": null, "footprint_id": null, "SHAPE_Area": null }, "geometry": { "type": "Point", "coordinates": [ 105.235213, -5.551462 ] } },
{ "type": "Feature", "properties": { "nomor": 583, "id_bangunan": "Blok A (SDI-A01-063)", "fungsi_bangunan": "Tandon air beton", "jumlah_lantai": 1, "index_right": null, "footprint_id": null, "SHAPE_Area": null }, "geometry": { "type": "Point", "coordinates": [ 105.224345, -5.544264 ] } },
{ "type": "Feature", "properties": { "nomor": 584, "id_bangunan": "Blok A (SDI-A01-067)", "fungsi_bangunan": "Gazebo", "jumlah_lantai": 1, "index_right": null, "footprint_id": null, "SHAPE_Area": null }, "geometry": { "type": "Point", "coordinates": [ 105.224268, -5.548091 ] } },
{ "type": "Feature", "properties": { "nomor": 585, "id_bangunan": "SDI-A83-083", "fungsi_bangunan": "Gazebo", "jumlah_lantai": 1, "index_right": null, "footprint_id": null, "SHAPE_Area": null }, "geometry": { "type": "Point", "coordinates": [ 105.223855, -5.548049 ] } },
{ "type": "Feature", "properties": { "nomor": 587, "id_bangunan": "SDI-C62-062", "fungsi_bangunan": "Parkiran motor", "jumlah_lantai": 1, "index_right": null, "footprint_id": null, "SHAPE_Area": null }, "geometry": { "type": "Point", "coordinates": [ 105.236847, -5.55155 ] } },
{ "type": "Feature", "properties": { "nomor": 588, "id_bangunan": "SDI-C51-051", "fungsi_bangunan": "Rumah Kosong Hancur", "jumlah_lantai": 1, "index_right": null, "footprint_id": null, "SHAPE_Area": null }, "geometry": { "type": "Point", "coordinates": [ 105.236773, -5.552244 ] } },
{ "type": "Feature", "properties": { "nomor": 589, "id_bangunan": "SDI-A82-082", "fungsi_bangunan": "Gubuk", "jumlah_lantai": 1, "index_right": null, "footprint_id": null, "SHAPE_Area": null }, "geometry": { "type": "Point", "coordinates": [ 105.225958, -5.547191 ] } }
]
}
