{
"type": "FeatureCollection",
"name": "bangunan_unmatched",
"crs": { "type": "name", "properties": { "name": "urn:ogc:def:crs:OGC:1.3:CRS84" } },
"features": [
{ "type": "Feature", "properties": { "nomor": 12, "id_bangunan": "SDI-C08-008", "fungsi_bangunan": "Rumah Tinggal", "jumlah_lantai": 1, "point_id": 11 }, "geometry": { "type": "Point", "coordinates": [ 105.233965, -5.552464 ] } },
{ "type": "Feature", "properties": { "nomor": 16, "id_bangunan": "SDI-C11-011", "fungsi_bangunan": "Rumah Tinggal", "jumlah_lantai": 1, "point_id": 15 }, "geometry": { "type": "Point", "coordinates": [ 105.233947, -5.552238 ] } },
{ "type": "Feature", "properties": { "nomor": 36, "id_bangunan": "SDI-C16-016", "fungsi_bangunan": "Rumah Tinggal", "jumlah_lantai": 1, "point_id": 35 }, "geometry": { "type": "Point", "coordinates": [ 105.235186, -5.552183 ] } },
{ "type": "Feature", "properties": { "nomor": 39, "id_bangunan": "SDI-C19-019", "fungsi_bangunan": "Rumah Tinggal", "jumlah_lantai": 1, "point_id": 38 }, "geometry": { "type": "Point", "coordinates": [ 105.235496, -5.551662 ] } },
{ "type": "Feature", "properties": { "nomor": 43, "id_bangunan": "SDI-C22-022", "fungsi_bangunan": "Rumah Tinggal", "jumlah_lantai": 1, "point_id": 42 }, "geometry": { "type": "Point", "coordinates": [ 105.235052, -5.551943 ] } },
{ "type": "Feature", "properties": { "nomor": 49, "id_bangunan": "SDI-A30-030", "fungsi_bangunan": "Rumah Tinggal", "jumlah_lantai": 1, "point_id": 48 }, "geometry": { "type": "Point", "coordinates": [ 105.225424, -5.544213 ] } },
{ "type": "Feature", "properties": { "nomor": 55, "id_bangunan": "SDI-A33-033", "fungsi_bangunan": "Rumah Tinggal", "jumlah_lantai": 1, "point_id": 54 }, "geometry": { "type": "Point", "coordinates": [ 105.225199, -5.544411 ] } },
{ "type": "Feature", "properties": { "nomor": 56, "id_bangunan": "SDI-B05-005", "fungsi_bangunan": "Rumah Tinggal", "jumlah_lantai": 1, "point_id": 55 }, "geometry": { "type": "Point", "coordinates": [ 105.229682, -5.549010571 ] } },
{ "type": "Feature", "properties": { "nomor": 59, "id_bangunan": "SDI-A39-039", "fungsi_bangunan": "Rumah Tinggal", "jumlah_lantai": 1, "point_id": 58 }, "geometry": { "type": "Point", "coordinates": [ 105.225139, -5.544144 ] } },
{ "type": "Feature", "properties": { "nomor": 65, "id_bangunan": "Blok A (SDI-A01-044)", "fungsi_bangunan": "Rumah Tinggal", "jumlah_lantai": 1, "point_id": 64 }, "geometry": { "type": "Point", "coordinates": [ 105.224676, -5.543823 ] } },
{ "type": "Feature", "properties": { "nomor": 66, "id_bangunan": "Blok A (SDI-A01-045)", "fungsi_bangunan": "Rumah Tinggal", "jumlah_lantai": 1, "point_id": 65 }, "geometry": { "type": "Point", "coordinates": [ 105.224735, -5.543671 ] } },
{ "type": "Feature", "properties": { "nomor": 71, "id_bangunan": "Blok A (SDI-A01-050)", "fungsi_bangunan": "Rumah Tinggal", "jumlah_lantai": 1, "point_id": 70 }, "geometry": { "type": "Point", "coordinates": [ 105.224359, -5.543625 ] } },
{ "type": "Feature", "properties": { "nomor": 81, "id_bangunan": "Blok A (SDI-A01-060)", "fungsi_bangunan": "Rumah Tinggal", "jumlah_lantai": 1, "point_id": 80 }, "geometry": { "type": "Point", "coordinates": [ 105.224203, -5.543855 ] } },
{ "type": "Feature", "properties": { "nomor": 94, "id_bangunan": "SDI-B10-010", "fungsi_bangunan": "Rumah Tinggal", "jumlah_lantai": 1, "point_id": 93 }, "geometry": { "type": "Point", "coordinates": [ 105.232069, -5.549937 ] } },
{ "type": "Feature", "properties": { "nomor": 97, "id_bangunan": "SDI-B13-013", "fungsi_bangunan": "Rumah Tinggal", "jumlah_lantai": 1, "point_id": 96 }, "geometry": { "type": "Point", "coordinates": [ 105.232212, -5.549804 ] } },
{ "type": "Feature", "properties": { "nomor": 101, "id_bangunan": "SDI-17-017", "fungsi_bangunan": "Rumah Tinggal", "jumlah_lantai": 1, "point_id": 100 }, "geometry": { "type": "Point", "coordinates": [ 105.2315, -5.599482 ] } },
{ "type": "Feature", "properties": { "nomor": 112, "id_bangunan": "SDI-B28-028", "fungsi_bangunan": "Rumah Tinggal", "jumlah_lantai": 1, "point_id": 111 }, "geometry": { "type": "Point", "coordinates": [ 105.230398, -5.547334 ] } },
{ "type": "Feature", "properties": { "nomor": 117, "id_bangunan": "SDI-B33-033", "fungsi_bangunan": "Rumah Tinggal", "jumlah_lantai": 1, "point_id": 116 }, "geometry": { "type": "Point", "coordinates": [ 105.230151, -5.547275 ] } },
{ "type": "Feature", "properties": { "nomor": 129, "id_bangunan": "SDI-B50-050", "fungsi_bangunan": "Rumah Tinggal", "jumlah_lantai": 1, "point_id": 128 }, "geometry": { "type": "Point", "coordinates": [ 105.229284, -5.547588 ] } },
{ "type": "Feature", "properties": { "nomor": 130, "id_bangunan": "SDI-B51-051", "fungsi_bangunan": "Rumah Tinggal", "jumlah_lantai": 1, "point_id": 129 }, "geometry": { "type": "Point", "coordinates": [ 105.228996, -5.547832 ] } },
{ "type": "Feature", "properties": { "nomor": 136, "id_bangunan": "SDI-B57-057", "fungsi_bangunan": "Rumah Tinggal", "jumlah_lantai": 1, "point_id": 135 }, "geometry": { "type": "Point", "coordinates": [ 105.229435, -5.548084 ] } },
{ "type": "Feature", "properties": { "nomor": 137, "id_bangunan": "SDI-B58-058", "fungsi_bangunan": "Rumah Tinggal", "jumlah_lantai": 1, "point_id": 136 }, "geometry": { "type": "Point", "coordinates": [ 105.22921, -5.54825 ] } },
{ "type": "Feature", "properties": { "nomor": 146, "id_bangunan": "SDI-B67-067", "fungsi_bangunan": "Rumah Tinggal", "jumlah_lantai": 1, "point_id": 145 }, "geometry": { "type": "Point", "coordinates": [ 105.2295, -5.549023 ] } },
{ "type": "Feature", "properties": { "nomor": 161, "id_bangunan": "SDI-B82-082", "fungsi_bangunan": "Rumah Tinggal", "jumlah_lantai": 1, "point_id": 160 }, "geometry": { "type": "Point", "coordinates": [ 105.230647, -5.550586 ] } },
{ "type": "Feature", "properties": { "nomor": 168, "id_bangunan": "SDI-B90-090", "fungsi_bangunan": "Rumah Tinggal", "jumlah_lantai": 1, "point_id": 167 }, "geometry": { "type": "Point", "coordinates": [ 105.231001, -5.551156 ] } },
{ "type": "Feature", "properties": { "nomor": 180, "id_bangunan": "SDI-C42-042", "fungsi_bangunan": "Rumah Tinggal", "jumlah_lantai": 1, "point_id": 179 }, "geometry": { "type": "Point", "coordinates": [ 105.237008, -5.552902 ] } },
{ "type": "Feature", "properties": { "nomor": 196, "id_bangunan": "Blok C (SDI-C65-065)", "fungsi_bangunan": "Rumah Tinggal", "jumlah_lantai": 1, "point_id": 195 }, "geometry": { "type": "Point", "coordinates": [ 105.234275, -5.551571 ] } },
{ "type": "Feature", "properties": { "nomor": 209, "id_bangunan": "Blok C (SDI-C79-079)", "fungsi_bangunan": "Rumah Tinggal", "jumlah_lantai": 1, "point_id": 208 }, "geometry": { "type": "Point", "coordinates": [ 105.235904, -5.553392 ] } },
{ "type": "Feature", "properties": { "nomor": 212, "id_bangunan": "Blok C (SDI-C83-083)", "fungsi_bangunan": "Rumah Tinggal", "jumlah_lantai": 1, "point_id": 211 }, "geometry": { "type": "Point", "coordinates": [ 105.236008, -5.553525 ] } },
{ "type": "Feature", "properties": { "nomor": 220, "id_bangunan": "Blok C (SDI-C93-093)", "fungsi_bangunan": "Rumah Tinggal", "jumlah_lantai": 1, "point_id": 219 }, "geometry": { "type": "Point", "coordinates": [ 105.236795, -5.523323 ] } },
{ "type": "Feature", "properties": { "nomor": 224, "id_bangunan": "Blok C (SDI-C97-097)", "fungsi_bangunan": "Rumah Tinggal", "jumlah_lantai": 1, "point_id": 223 }, "geometry": { "type": "Point", "coordinates": [ 105.236673, -5.22292 ] } },
{ "type": "Feature", "properties": { "nomor": 229, "id_bangunan": "SDI-C104-104", "fungsi_bangunan": "Rumah Tinggal", "jumlah_lantai": 1, "point_id": 228 }, "geometry": { "type": "Point", "coordinates": [ 105.235273, -5.552383 ] } },
{ "type": "Feature", "properties": { "nomor": 258, "id_bangunan": "Blok D (SDI-D17-017)", "fungsi_bangunan": "Rumah Tinggal", "jumlah_lantai": 1, "point_id": 257 }, "geometry": { "type": "Point", "coordinates": [ 105.244166, -5.554810429 ] } },
{ "type": "Feature", "properties": { "nomor": 261, "id_bangunan": "Blok D (SDI-D20-020)", "fungsi_bangunan": "Rumah Tinggal", "jumlah_lantai": 1, "point_id": 260 }, "geometry": { "type": "Point", "coordinates": [ 105.244368, -5.555072509 ] } },
{ "type": "Feature", "properties": { "nomor": 263, "id_bangunan": "Blok D (SDI-D23-023)", "fungsi_bangunan": "Rumah Tinggal", "jumlah_lantai": 1, "point_id": 262 }, "geometry": { "type": "Point", "coordinates": [ 105.24419, -5.555339315 ] } },
{ "type": "Feature", "properties": { "nomor": 265, "id_bangunan": "Blok D (SDI-D25-025)", "fungsi_bangunan": "Rumah Tinggal", "jumlah_lantai": 1, "point_id": 264 }, "geometry": { "type": "Point", "coordinates": [ 105.244249, -5.555371489 ] } },
{ "type": "Feature", "properties": { "nomor": 269, "id_bangunan": "Blok D (SDI-D29-029)", "fungsi_bangunan": "Rumah Tinggal", "jumlah_lantai": 1, "point_id": 268 }, "geometry": { "type": "Point", "coordinates": [ 105.244676, -5.555720875 ] } },
{ "type": "Feature", "properties": { "nomor": 276, "id_bangunan": "SDI-D50-050", "fungsi_bangunan": "Rumah Tinggal", "jumlah_lantai": 1, "point_id": 275 }, "geometry": { "type": "Point", "coordinates": [ 105.24085, -5.553495 ] } },
{ "type": "Feature", "properties": { "nomor": 280, "id_bangunan": "SDI-D54-054", "fungsi_bangunan": "Rumah Tinggal", "jumlah_lantai": 1, "point_id": 279 }, "geometry": { "type": "Point", "coordinates": [ 105.241097, -5.553741 ] } },
{ "type": "Feature", "properties": { "nomor": 281, "id_bangunan": "Blok D (SDI-D38-038)", "fungsi_bangunan": "Rumah Tinggal", "jumlah_lantai": 1, "point_id": 280 }, "geometry": { "type": "Point", "coordinates": [ 105.244621, -5.556824671 ] } },
{ "type": "Feature", "properties": { "nomor": 293, "id_bangunan": "SDI-D01-056", "fungsi_bangunan": "Rumah Tinggal", "jumlah_lantai": 2, "point_id": 292 }, "geometry": { "type": "Point", "coordinates": [ 105.240337, -5.554489 ] } },
{ "type": "Feature", "properties": { "nomor": 297, "id_bangunan": "SDI-D61-061", "fungsi_bangunan": "Rumah Tinggal", "jumlah_lantai": 1, "point_id": 296 }, "geometry": { "type": "Point", "coordinates": [ 105.241164, -5.553903 ] } },
{ "type": "Feature", "properties": { "nomor": 309, "id_bangunan": "BLOK D (SDI-D74-074)", "fungsi_bangunan": "Rumah Tinggal", "jumlah_lantai": 1, "point_id": 308 }, "geometry": { "type": "Point", "coordinates": [ 105.241056, -5.554716 ] } },
{ "type": "Feature", "properties": { "nomor": 310, "id_bangunan": "BLOK D (SDI-D75-075)", "fungsi_bangunan": "Rumah Tinggal", "jumlah_lantai": 1, "point_id": 309 }, "geometry": { "type": "Point", "coordinates": [ 105.241172, -5.554612 ] } },
{ "type": "Feature", "properties": { "nomor": 314, "id_bangunan": "Blok D (SDI-D81-081)", "fungsi_bangunan": "Rumah Tinggal", "jumlah_lantai": 1, "point_id": 313 }, "geometry": { "type": "Point", "coordinates": [ 105.24074, -5.554988 ] } },
{ "type": "Feature", "properties": { "nomor": 317, "id_bangunan": "Blok D (SDI-D84-084)", "fungsi_bangunan": "Rumah Tinggal", "jumlah_lantai": 1, "point_id": 316 }, "geometry": { "type": "Point", "coordinates": [ 105.240798, -5.555124 ] } },
{ "type": "Feature", "properties": { "nomor": 318, "id_bangunan": "Blok D (SDI-D86-086)", "fungsi_bangunan": "Rumah Tinggal", "jumlah_lantai": 1, "point_id": 317 }, "geometry": { "type": "Point", "coordinates": [ 105.240861, -5.555215 ] } },
{ "type": "Feature", "properties": { "nomor": 319, "id_bangunan": "Blok D (SDI-D88-088)", "fungsi_bangunan": "Rumah Tinggal", "jumlah_lantai": 1, "point_id": 318 }, "geometry": { "type": "Point", "coordinates": [ 105.24096, -5.555378 ] } },
{ "type": "Feature", "properties": { "nomor": 321, "id_bangunan": "Blok D (SDI-D90-090)", "fungsi_bangunan": "Rumah Tinggal", "jumlah_lantai": 1, "point_id": 320 }, "geometry": { "type": "Point", "coordinates": [ 105.241005, -5.555425 ] } },
{ "type": "Feature", "properties": { "nomor": 323, "id_bangunan": "Blok D (SDI-D92-092)", "fungsi_bangunan": "Rumah Tinggal", "jumlah_lantai": 1, "point_id": 322 }, "geometry": { "type": "Point", "coordinates": [ 105.241085, -5.555602 ] } },
{ "type": "Feature", "properties": { "nomor": 324, "id_bangunan": "Blok D (SDI-D93-093)", "fungsi_bangunan": "Rumah Tinggal", "jumlah_lantai": 1, "point_id": 323 }, "geometry": { "type": "Point", "coordinates": [ 105.241021, -5.555493 ] } },
{ "type": "Feature", "properties": { "nomor": 325, "id_bangunan": "Blok D (SDI-D94-094)", "fungsi_bangunan": "Rumah Tinggal", "jumlah_lantai": 1, "point_id": 324 }, "geometry": { "type": "Point", "coordinates": [ 105.241156, -5.555734 ] } },
{ "type": "Feature", "properties": { "nomor": 329, "id_bangunan": "Blok D (SDI-D98-098)", "fungsi_bangunan": "Rumah Tinggal", "jumlah_lantai": 1, "point_id": 328 }, "geometry": { "type": "Point", "coordinates": [ 105.241178, -5.555777 ] } },
{ "type": "Feature", "properties": { "nomor": 331, "id_bangunan": "Blok D (SDI-D100-100)", "fungsi_bangunan": "Rumah Tinggal", "jumlah_lantai": 2, "point_id": 330 }, "geometry": { "type": "Point", "coordinates": [ 105.241449, -5.556175 ] } },
{ "type": "Feature", "properties": { "nomor": 348, "id_bangunan": "SDI-A87-087", "fungsi_bangunan": "Rumah Tinggal", "jumlah_lantai": 1, "point_id": 347 }, "geometry": { "type": "Point", "coordinates": [ 105.225649, -5.544981 ] } },
{ "type": "Feature", "properties": { "nomor": 350, "id_bangunan": "SDI-A90-090", "fungsi_bangunan": "Rumah Tinggal", "jumlah_lantai": 1, "point_id": 349 }, "geometry": { "type": "Point", "coordinates": [ 105.225662, -5.544012 ] } },
{ "type": "Feature", "properties": { "nomor": 356, "id_bangunan": "BLOK D (SDI-D106-106)", "fungsi_bangunan": "Rumah Tinggal", "jumlah_lantai": 1, "point_id": 355 }, "geometry": { "type": "Point", "coordinates": [ 105.241897, -5.556824 ] } },
{ "type": "Feature", "properties": { "nomor": 361, "id_bangunan": "Blok D (SDI-D112-112)", "fungsi_bangunan": "Rumah Tinggal", "jumlah_lantai": 1, "point_id": 360 }, "geometry": { "type": "Point", "coordinates": [ 105.241942, -5.556895 ] } },
{ "type": "Feature", "properties": { "nomor": 362, "id_bangunan": "Blok D (SDI-D113-113)", "fungsi_bangunan": "Rumah Tinggal", "jumlah_lantai": 1, "point_id": 361 }, "geometry": { "type": "Point", "coordinates": [ 105.242256, -5.558196 ] } },
{ "type": "Feature", "properties": { "nomor": 364, "id_bangunan": "Blok D (SDI-D115-115)", "fungsi_bangunan": "Rumah Tinggal", "jumlah_lantai": 1, "point_id": 363 }, "geometry": { "type": "Point", "coordinates": [ 105.242238, -5.558052 ] } },
{ "type": "Feature", "properties": { "nomor": 365, "id_bangunan": "Blok D (SDI-D117-117)", "fungsi_bangunan": "Rumah Tinggal", "jumlah_lantai": 1, "point_id": 364 }, "geometry": { "type": "Point", "coordinates": [ 105.242273, -5.55831 ] } },
{ "type": "Feature", "properties": { "nomor": 366, "id_bangunan": "Blok D (SDI-D118-118)", "fungsi_bangunan": "Rumah Tinggal", "jumlah_lantai": 1, "point_id": 365 }, "geometry": { "type": "Point", "coordinates": [ 105.242269, -5.558293 ] } },
{ "type": "Feature", "properties": { "nomor": 367, "id_bangunan": "Blok D (SDI-D119-119)", "fungsi_bangunan": "Rumah Tinggal", "jumlah_lantai": 1, "point_id": 366 }, "geometry": { "type": "Point", "coordinates": [ 105.242285, -5.5584 ] } },
{ "type": "Feature", "properties": { "nomor": 369, "id_bangunan": "Blok D (SDI-D121-121)", "fungsi_bangunan": "Rumah Tinggal", "jumlah_lantai": 1, "point_id": 368 }, "geometry": { "type": "Point", "coordinates": [ 105.242273, -5.558316 ] } },
{ "type": "Feature", "properties": { "nomor": 371, "id_bangunan": "Blok D (SDI-D123-123)", "fungsi_bangunan": "Rumah Tinggal", "jumlah_lantai": 1, "point_id": 370 }, "geometry": { "type": "Point", "coordinates": [ 105.242282, -5.55848 ] } },
{ "type": "Feature", "properties": { "nomor": 373, "id_bangunan": "Blok D (SDI-D125-125)", "fungsi_bangunan": "Rumah Tinggal", "jumlah_lantai": 1, "point_id": 372 }, "geometry": { "type": "Point", "coordinates": [ 105.242286, -5.558406 ] } },
{ "type": "Feature", "properties": { "nomor": 374, "id_bangunan": "Blok D (SDI-D126-126)", "fungsi_bangunan": "Rumah Tinggal", "jumlah_lantai": 1, "point_id": 373 }, "geometry": { "type": "Point", "coordinates": [ 105.242416, -5.558731 ] } },
{ "type": "Feature", "properties": { "nomor": 381, "id_bangunan": "Blok D (SDI-D130-130)", "fungsi_bangunan": "Rumah Tinggal", "jumlah_lantai": 1, "point_id": 380 }, "geometry": { "type": "Point", "coordinates": [ 105.242163, -5.558884 ] } },
{ "type": "Feature", "properties": { "nomor": 384, "id_bangunan": "Blok C (SDI-C122-122)", "fungsi_bangunan": "Rumah Tinggal", "jumlah_lantai": 1, "point_id": 383 }, "geometry": { "type": "Point", "coordinates": [ 105.231854, -5.55197 ] } },
{ "type": "Feature", "properties": { "nomor": 385, "id_bangunan": "Blok D (SDI-D132-132)", "fungsi_bangunan": "Rumah Tinggal", "jumlah_lantai": 1, "point_id": 384 }, "geometry": { "type": "Point", "coordinates": [ 105.242265, -5.558812 ] } },
{ "type": "Feature", "properties": { "nomor": 389, "id_bangunan": "Blok C (SDI-C125-125)", "fungsi_bangunan": "Rumah Tinggal", "jumlah_lantai": 1, "point_id": 388 }, "geometry": { "type": "Point", "coordinates": [ 105.231754, -5.552572 ] } },
{ "type": "Feature", "properties": { "nomor": 391, "id_bangunan": "Blok D (SDI-D136-136)", "fungsi_bangunan": "Rumah Tinggal", "jumlah_lantai": 1, "point_id": 390 }, "geometry": { "type": "Point", "coordinates": [ 105.242107, -5.55891 ] } },
{ "type": "Feature", "properties": { "nomor": 393, "id_bangunan": "Blok D (SDI-D137-137)", "fungsi_bangunan": "Rumah Tinggal", "jumlah_lantai": 1, "point_id": 392 }, "geometry": { "type": "Point", "coordinates": [ 105.242124, -5.558904 ] } },
{ "type": "Feature", "properties": { "nomor": 394, "id_bangunan": "Blok D (SDI-D139-139)", "fungsi_bangunan": "Rumah Tinggal", "jumlah_lantai": 1, "point_id": 393 }, "geometry": { "type": "Point", "coordinates": [ 105.240688, -5.554301 ] } },
{ "type": "Feature", "properties": { "nomor": 396, "id_bangunan": "Blok D (SDI-D140-140)", "fungsi_bangunan": "Rumah Tinggal", "jumlah_lantai": 1, "point_id": 395 }, "geometry": { "type": "Point", "coordinates": [ 105.241971, -5.554327 ] } },
{ "type": "Feature", "properties": { "nomor": 411, "id_bangunan": "Blok B (SDI-B105-105)", "fungsi_bangunan": "Rumah Tinggal", "jumlah_lantai": 1, "point_id": 410 }, "geometry": { "type": "Point", "coordinates": [ 105.230689, -5.551492 ] } },
{ "type": "Feature", "properties": { "nomor": 412, "id_bangunan": "Blok B (SDI-B106-106)", "fungsi_bangunan": "Rumah Tinggal", "jumlah_lantai": 1, "point_id": 411 }, "geometry": { "type": "Point", "coordinates": [ 105.230996, -5.551345 ] } },
{ "type": "Feature", "properties": { "nomor": 414, "id_bangunan": "Blok B (SDI-B109-109)", "fungsi_bangunan": "Rumah Tinggal", "jumlah_lantai": 1, "point_id": 413 }, "geometry": { "type": "Point", "coordinates": [ 105.230647, -5.551299 ] } },
{ "type": "Feature", "properties": { "nomor": 420, "id_bangunan": "Blok B (SDI-B115-115)", "fungsi_bangunan": "Rumah Tinggal", "jumlah_lantai": 1, "point_id": 419 }, "geometry": { "type": "Point", "coordinates": [ 105.230836, -5.551198 ] } },
{ "type": "Feature", "properties": { "nomor": 427, "id_bangunan": "Blok B (SDI-B123-123)", "fungsi_bangunan": "Rumah Tinggal", "jumlah_lantai": 1, "point_id": 426 }, "geometry": { "type": "Point", "coordinates": [ 105.229168, -5.546483 ] } },
{ "type": "Feature", "properties": { "nomor": 441, "id_bangunan": "Blok B (SDI-B136-136)", "fungsi_bangunan": "Rumah Tinggal", "jumlah_lantai": 1, "point_id": 440 }, "geometry": { "type": "Point", "coordinates": [ 105.228017, -5.545988 ] } },
{ "type": "Feature", "properties": { "nomor": 443, "id_bangunan": "Blok B (SDI-B138-138)", "fungsi_bangunan": "Rumah Tinggal", "jumlah_lantai": 1, "point_id": 442 }, "geometry": { "type": "Point", "coordinates": [ 105.228154, -5.54602 ] } },
{ "type": "Feature", "properties": { "nomor": 444, "id_bangunan": "Blok B (SDI-B139-139)", "fungsi_bangunan": "Rumah Tinggal", "jumlah_lantai": 1, "point_id": 443 }, "geometry": { "type": "Point", "coordinates": [ 105.227888, -5.546245 ] } },
{ "type": "Feature", "properties": { "nomor": 446, "id_bangunan": "Blok B (SDI-B140-140)", "fungsi_bangunan": "Rumah Tinggal", "jumlah_lantai": 1, "point_id": 445 }, "geometry": { "type": "Point", "coordinates": [ 105.228118, -5.546512 ] } },
{ "type": "Feature", "properties": { "nomor": 465, "id_bangunan": "Blok B (SDI-B160-160)", "fungsi_bangunan": "Rumah Tinggal", "jumlah_lantai": 1, "point_id": 464 }, "geometry": { "type": "Point", "coordinates": [ 105.228821, -5.551529 ] } },
{ "type": "Feature", "properties": { "nomor": 470, "id_bangunan": "Blok B (SDI-B165-165)", "fungsi_bangunan": "Rumah Tinggal", "jumlah_lantai": 1, "point_id": 469 }, "geometry": { "type": "Point", "coordinates": [ 105.229312, -5.551851 ] } },
{ "type": "Feature", "properties": { "nomor": 479, "id_bangunan": "Blok C (SDI-C135-135)", "fungsi_bangunan": "Rumah Tinggal", "jumlah_lantai": 1, "point_id": 478 }, "geometry": { "type": "Point", "coordinates": [ 105.236691, -5.553139 ] } },
{ "type": "Feature", "properties": { "nomor": 480, "id_bangunan": "Blok C(SDI-C136-136)", "fungsi_bangunan": "Rumah Tinggal", "jumlah_lantai": 1, "point_id": 479 }, "geometry": { "type": "Point", "coordinates": [ 105.236606, -5.553149 ] } },
{ "type": "Feature", "properties": { "nomor": 481, "id_bangunan": "Blok C (SDI-B137-137)", "fungsi_bangunan": "Rumah Tinggal", "jumlah_lantai": 1, "point_id": 480 }, "geometry": { "type": "Point", "coordinates": [ 105.236458, -5.553228 ] } },
{ "type": "Feature", "properties": { "nomor": 483, "id_bangunan": "Blok C (SDI-C139-139)", "fungsi_bangunan": "Rumah Tinggal", "jumlah_lantai": 1, "point_id": 482 }, "geometry": { "type": "Point", "coordinates": [ 105.236721, -5.552822 ] } },
{ "type": "Feature", "properties": { "nomor": 484, "id_bangunan": "Blok C (SDI-C140-140)", "fungsi_bangunan": "Rumah Tinggal", "jumlah_lantai": 1, "point_id": 483 }, "geometry": { "type": "Point", "coordinates": [ 105.236425, -5.552976 ] } },
{ "type": "Feature", "properties": { "nomor": 485, "id_bangunan": "Blok C (SDI-C141-141)", "fungsi_bangunan": "Rumah Tinggal", "jumlah_lantai": 1, "point_id": 484 }, "geometry": { "type": "Point", "coordinates": [ 105.236524, -5.552764 ] } },
{ "type": "Feature", "properties": { "nomor": 486, "id_bangunan": "Blok C (SDI-C142-142)", "fungsi_bangunan": "Rumah Tinggal", "jumlah_lantai": 1, "point_id": 485 }, "geometry": { "type": "Point", "coordinates": [ 105.236353, -5.55262 ] } },
{ "type": "Feature", "properties": { "nomor": 487, "id_bangunan": "Blok C (SDI-C143-143)", "fungsi_bangunan": "Rumah Tinggal", "jumlah_lantai": 1, "point_id": 486 }, "geometry": { "type": "Point", "coordinates": [ 105.236276, -5.552405 ] } },
{ "type": "Feature", "properties": { "nomor": 500, "id_bangunan": "Blok B (SDI-B181-181)", "fungsi_bangunan": "Rumah Tinggal", "jumlah_lantai": 1, "point_id": 499 }, "geometry": { "type": "Point", "coordinates": [ 105.233412, -5.551046 ] } },
{ "type": "Feature", "properties": { "nomor": 501, "id_bangunan": "Blok B (SDI-B182-182)", "fungsi_bangunan": "Rumah Tinggal", "jumlah_lantai": 1, "point_id": 500 }, "geometry": { "type": "Point", "coordinates": [ 105.233263, -5.551161 ] } },
{ "type": "Feature", "properties": { "nomor": 502, "id_bangunan": "Blok B (SDI-B183-183)", "fungsi_bangunan": "Rumah Tinggal", "jumlah_lantai": 1, "point_id": 501 }, "geometry": { "type": "Point", "coordinates": [ 105.233368, -5.550887 ] } },
{ "type": "Feature", "properties": { "nomor": 505, "id_bangunan": "SDI-C06-006", "fungsi_bangunan": "Rumah Tinggal dan Warung", "jumlah_lantai": 2, "point_id": 504 }, "geometry": { "type": "Point", "coordinates": [ 105.234672, -5.552477 ] } },
{ "type": "Feature", "properties": { "nomor": 508, "id_bangunan": "SDI-C102-102", "fungsi_bangunan": "Rumah Tinggal dan Warung", "jumlah_lantai": 1, "point_id": 507 }, "geometry": { "type": "Point", "coordinates": [ 105.236494, -5.554043 ] } },
{ "type": "Feature", "properties": { "nomor": 512, "id_bangunan": "Blok D (SDI-D85-085)", "fungsi_bangunan": "rumah tinggal dan warung", "jumlah_lantai": 1, "point_id": 511 }, "geometry": { "type": "Point", "coordinates": [ 105.2409, -5.555287 ] } },
{ "type": "Feature", "properties": { "nomor": 513, "id_bangunan": "SDI-D10-010", "fungsi_bangunan": "Komersial", "jumlah_lantai": 1, "point_id": 512 }, "geometry": { "type": "Point", "coordinates": [ 105.24, -5.5543 ] } },
{ "type": "Feature", "properties": { "nomor": 514, "id_bangunan": "Blok D (SDI-D104-104)", "fungsi_bangunan": "Komersial", "jumlah_lantai": 1, "point_id": 513 }, "geometry": { "type": "Point", "coordinates": [ 105.241564, -5.556358 ] } },
{ "type": "Feature", "properties": { "nomor": 516, "id_bangunan": "SDI-A07-007", "fungsi_bangunan": "Toko/Warung", "jumlah_lantai": 1, "point_id": 515 }, "geometry": { "type": "Point", "coordinates": [ 105.227337, -5.544995 ] } },
{ "type": "Feature", "properties": { "nomor": 517, "id_bangunan": "SDI-C25-025", "fungsi_bangunan": "Toko/Warung", "jumlah_lantai": 1, "point_id": 516 }, "geometry": { "type": "Point", "coordinates": [ 105.235019, -5.551725 ] } },
{ "type": "Feature", "properties": { "nomor": 519, "id_bangunan": "SD1-B03-003", "fungsi_bangunan": "Toko/Warung", "jumlah_lantai": 1, "point_id": 518 }, "geometry": { "type": "Point", "coordinates": [ 105.229246, -5.547013387 ] } },
{ "type": "Feature", "properties": { "nomor": 520, "id_bangunan": "SDI-D04-004", "fungsi_bangunan": "Toko/Warung", "jumlah_lantai": 2, "point_id": 519 }, "geometry": { "type": "Point", "coordinates": [ 105.242, -5.55288 ] } },
{ "type": "Feature", "properties": { "nomor": 523, "id_bangunan": "SDI-D06-006", "fungsi_bangunan": "Toko/Warung", "jumlah_lantai": 1, "point_id": 522 }, "geometry": { "type": "Point", "coordinates": [ 105.243, -5.55193 ] } },
{ "type": "Feature", "properties": { "nomor": 524, "id_bangunan": "SDI-B07-007", "fungsi_bangunan": "Toko/Warung", "jumlah_lantai": 1, "point_id": 523 }, "geometry": { "type": "Point", "coordinates": [ 105.229941, -5.549170494 ] } },
{ "type": "Feature", "properties": { "nomor": 528, "id_bangunan": "SDI-B44-044", "fungsi_bangunan": "Toko/Warung", "jumlah_lantai": 1, "point_id": 527 }, "geometry": { "type": "Point", "coordinates": [ 105.229325, -5.546742 ] } },
{ "type": "Feature", "properties": { "nomor": 532, "id_bangunan": "Blok C (SDI-C82-082)", "fungsi_bangunan": "Toko/Warung", "jumlah_lantai": 1, "point_id": 531 }, "geometry": { "type": "Point", "coordinates": [ 105.236064, -5.553345 ] } },
{ "type": "Feature", "properties": { "nomor": 535, "id_bangunan": "Blok D (SDI-D34-034)", "fungsi_bangunan": "Toko/Warung", "jumlah_lantai": 1, "point_id": 534 }, "geometry": { "type": "Point", "coordinates": [ 105.244667, -5.556327956 ] } },
{ "type": "Feature", "properties": { "nomor": 537, "id_bangunan": "Blok D (SDI-D76-076)", "fungsi_bangunan": "Toko/Warung", "jumlah_lantai": 1, "point_id": 536 }, "geometry": { "type": "Point", "coordinates": [ 105.24121, -5.554582 ] } },
{ "type": "Feature", "properties": { "nomor": 541, "id_bangunan": "SDI-D58-058", "fungsi_bangunan": "TPQ", "jumlah_lantai": 1, "point_id": 540 }, "geometry": { "type": "Point", "coordinates": [ 105.240366, -5.554567 ] } },
{ "type": "Feature", "properties": { "nomor": 546, "id_bangunan": "SDI-B06-006", "fungsi_bangunan": "Tempat Ibadah", "jumlah_lantai": 1, "point_id": 545 }, "geometry": { "type": "Point", "coordinates": [ 105.229715, -5.549192553 ] } },
{ "type": "Feature", "properties": { "nomor": 547, "id_bangunan": "SDI-A36-036", "fungsi_bangunan": "Tempat Ibadah", "jumlah_lantai": 1, "point_id": 546 }, "geometry": { "type": "Point", "coordinates": [ 105.225222, -5.544209 ] } },
{ "type": "Feature", "properties": { "nomor": 548, "id_bangunan": "SDI-C61-061", "fungsi_bangunan": "Tempat Ibadah", "jumlah_lantai": 1, "point_id": 547 }, "geometry": { "type": "Point", "coordinates": [ 105.236512, -5.551476 ] } },
{ "type": "Feature", "properties": { "nomor": 552, "id_bangunan": "Blok B (SDI-B154-154)", "fungsi_bangunan": "Tempat Ibadah", "jumlah_lantai": 1, "point_id": 551 }, "geometry": { "type": "Point", "coordinates": [ 105.22878, -5.551355 ] } },
{ "type": "Feature", "properties": { "nomor": 555, "id_bangunan": "SDI-C60-060", "fungsi_bangunan": "Sekolah", "jumlah_lantai": 1, "point_id": 554 }, "geometry": { "type": "Point", "coordinates": [ 105.236695, -5.55143 ] } },
{ "type": "Feature", "properties": { "nomor": 558, "id_bangunan": "SDI-B45-045", "fungsi_bangunan": "Fasilitas Kesehatan", "jumlah_lantai": 1, "point_id": 557 }, "geometry": { "type": "Point", "coordinates": [ 105.228799, -5.547214 ] } },
{ "type": "Feature", "properties": { "nomor": 560, "id_bangunan": "SDI-D08-008", "fungsi_bangunan": "Kantor", "jumlah_lantai": 2, "point_id": 559 }, "geometry": { "type": "Point", "coordinates": [ 105.2409, -5.55533 ] } },
{ "type": "Feature", "properties": { "nomor": 566, "id_bangunan": "SDI-C31-031", "fungsi_bangunan": "Gudang", "jumlah_lantai": 1, "point_id": 565 }, "geometry": { "type": "Point", "coordinates": [ 105.234653, -5.55156 ] } },
{ "type": "Feature", "properties": { "nomor": 567, "id_bangunan": "SDI-B05-005", "fungsi_bangunan": "Gudang", "jumlah_lantai": 1, "point_id": 566 }, "geometry": { "type": "Point", "coordinates": [ 105.232324, -5.550287 ] } },
{ "type": "Feature", "properties": { "nomor": 569, "id_bangunan": "Blok D (SDI-D110-110)", "fungsi_bangunan": "Gudang", "jumlah_lantai": 2, "point_id": 568 }, "geometry": { "type": "Point", "coordinates": [ 105.242186, -5.55755 ] } },
{ "type": "Feature", "properties": { "nomor": 571, "id_bangunan": "SDI-A95-095", "fungsi_bangunan": "Kandang Ayam", "jumlah_lantai": 1, "point_id": 570 }, "geometry": { "type": "Point", "coordinates": [ 105.225124, -5.543884 ] } },
{ "type": "Feature", "properties": { "nomor": 573, "id_bangunan": "SDI-A73-073", "fungsi_bangunan": "Kandang Kambing", "jumlah_lantai": 1, "point_id": 572 }, "geometry": { "type": "Point", "coordinates": [ 105.227168, -5.546416 ] } },
{ "type": "Feature", "properties": { "nomor": 577, "id_bangunan": "Blok C (SDI-C127-127)", "fungsi_bangunan": "Kandang Kambing", "jumlah_lantai": 1, "point_id": 576 }, "geometry": { "type": "Point", "coordinates": [ 105.232483, -5.552738 ] } },
{ "type": "Feature", "properties": { "nomor": 584, "id_bangunan": "Blok A (SDI-A01-067)", "fungsi_bangunan": "Gazebo", "jumlah_lantai": 1, "point_id": 583 }, "geometry": { "type": "Point", "coordinates": [ 105.224268, -5.548091 ] } },
{ "type": "Feature", "properties": { "nomor": 585, "id_bangunan": "SDI-A83-083", "fungsi_bangunan": "Gazebo", "jumlah_lantai": 1, "point_id": 584 }, "geometry": { "type": "Point", "coordinates": [ 105.223855, -5.548049 ] } },
{ "type": "Feature", "properties": { "nomor": 587, "id_bangunan": "SDI-C62-062", "fungsi_bangunan": "Parkiran motor", "jumlah_lantai": 1, "point_id": 586 }, "geometry": { "type": "Point", "coordinates": [ 105.236847, -5.55155 ] } },
{ "type": "Feature", "properties": { "nomor": 588, "id_bangunan": "SDI-C51-051", "fungsi_bangunan": "Rumah Kosong Hancur", "jumlah_lantai": 1, "point_id": 587 }, "geometry": { "type": "Point", "coordinates": [ 105.236773, -5.552244 ] } },
{ "type": "Feature", "properties": { "nomor": 589, "id_bangunan": "SDI-A82-082", "fungsi_bangunan": "Gubuk", "jumlah_lantai": 1, "point_id": 588 }, "geometry": { "type": "Point", "coordinates": [ 105.225958, -5.547191 ] } }
]
}
