{
"type": "FeatureCollection",
"name": "matching_perlu_cek",
"crs": { "type": "name", "properties": { "name": "urn:ogc:def:crs:OGC:1.3:CRS84" } },
"features": [
{ "type": "Feature", "properties": { "point_id": 21, "footprint_id": 1053, "id_bangunan": "SDI-A09-009", "fungsi_bangunan": "Rumah Tinggal", "jumlah_lantai": 1, "tinggi_lantai": 4.0, "tinggi_total": 4.0, "luas_m2": 86.49, "jarak_match_m": 89.42, "metode_match": "optimal_nearest", "status_match": "PERLU_CEK" }, "geometry": { "type": "Polygon", "coordinates": [ [ [ 105.225163578457895, -5.548625818609096 ], [ 105.225127016381066, -5.548534414179564 ], [ 105.225193641693551, -5.548507764368222 ], [ 105.225230202875821, -5.548599168793712 ], [ 105.225163578457895, -5.548625818609096 ] ] ] } },
{ "type": "Feature", "properties": { "point_id": 64, "footprint_id": 1091, "id_bangunan": "Blok A (SDI-A01-044)", "fungsi_bangunan": "Rumah Tinggal", "jumlah_lantai": 1, "tinggi_lantai": 4.0, "tinggi_total": 4.0, "luas_m2": 72.32, "jarak_match_m": 18.99, "metode_match": "optimal_nearest", "status_match": "PERLU_CEK" }, "geometry": { "type": "MultiPolygon", "coordinates": [ [ [ [ 105.22475471900006, -5.54403660399992 ], [ 105.224800394000084, -5.544050426999951 ], [ 105.224792056000098, -5.544077979999948 ], [ 105.224746380000084, -5.544064157999971 ], [ 105.22475471900006, -5.54403660399992 ] ] ], [ [ [ 105.22475471900006, -5.54403660399992 ], [ 105.22473592500009, -5.544031196999983 ], [ 105.224751424000061, -5.543977325999943 ], [ 105.224829142000061, -5.543999687999933 ], [ 105.2248136420001, -5.54405355799997 ], [ 105.22475471900006, -5.54403660399992 ] ] ] ] } },
{ "type": "Feature", "properties": { "point_id": 82, "footprint_id": 1166, "id_bangunan": "Blok A (SDI-A01-062)", "fungsi_bangunan": "Rumah Tinggal", "jumlah_lantai": 1, "tinggi_lantai": 4.0, "tinggi_total": 4.0, "luas_m2": 13.96, "jarak_match_m": 22.82, "metode_match": "optimal_nearest", "status_match": "PERLU_CEK" }, "geometry": { "type": "Polygon", "coordinates": [ [ [ 105.224653124000071, -5.543964643999971 ], [ 105.224685311000115, -5.543955607999973 ], [ 105.224694527000082, -5.543988438999976 ], [ 105.224662339000105, -5.543997473999989 ], [ 105.224653124000071, -5.543964643999971 ] ] ] } },
{ "type": "Feature", "properties": { "point_id": 100, "footprint_id": 105, "id_bangunan": "SDI-17-017", "fungsi_bangunan": "Rumah Tinggal", "jumlah_lantai": 1, "tinggi_lantai": 4.0, "tinggi_total": 4.0, "luas_m2": 47.54, "jarak_match_m": 4338.26, "metode_match": "optimal_nearest", "status_match": "PERLU_CEK" }, "geometry": { "type": "Polygon", "coordinates": [ [ [ 105.247390158080321, -5.563610677372973 ], [ 105.247394440885898, -5.563507884314511 ], [ 105.247432149899197, -5.5635094552317 ], [ 105.247427867100185, -5.56361224829014 ], [ 105.247390158080321, -5.563610677372973 ] ] ] } },
{ "type": "Feature", "properties": { "point_id": 111, "footprint_id": 581, "id_bangunan": "SDI-B28-028", "fungsi_bangunan": "Rumah Tinggal", "jumlah_lantai": 1, "tinggi_lantai": 4.0, "tinggi_total": 4.0, "luas_m2": 287.44, "jarak_match_m": 15.5, "metode_match": "optimal_nearest", "status_match": "PERLU_CEK" }, "geometry": { "type": "Polygon", "coordinates": [ [ [ 105.230391525314985, -5.547520309877402 ], [ 105.230461482084493, -5.54748033466168 ], [ 105.230454343403977, -5.547462488910669 ], [ 105.23055999124071, -5.54741037851667 ], [ 105.230607818994201, -5.547506032709029 ], [ 105.230535007559638, -5.547558142980329 ], [ 105.230509308997384, -5.547573847581458 ], [ 105.230515019835352, -5.547585982900578 ], [ 105.23043578379739, -5.547622388412856 ], [ 105.230391525314985, -5.547520309877402 ] ] ] } },
{ "type": "Feature", "properties": { "point_id": 145, "footprint_id": 521, "id_bangunan": "SDI-B67-067", "fungsi_bangunan": "Rumah Tinggal", "jumlah_lantai": 1, "tinggi_lantai": 4.0, "tinggi_total": 4.0, "luas_m2": 63.14, "jarak_match_m": 33.54, "metode_match": "optimal_nearest", "status_match": "PERLU_CEK" }, "geometry": { "type": "Polygon", "coordinates": [ [ [ 105.229108655195176, -5.549055214813548 ], [ 105.229176708142489, -5.549024757283646 ], [ 105.229204310040004, -5.549088527273386 ], [ 105.229136971165474, -5.549118745705189 ], [ 105.229108655195176, -5.549055214813548 ] ] ] } },
{ "type": "Feature", "properties": { "point_id": 182, "footprint_id": 840, "id_bangunan": "SDI-C46-046", "fungsi_bangunan": "Rumah Tinggal", "jumlah_lantai": 1, "tinggi_lantai": 4.0, "tinggi_total": 4.0, "luas_m2": 24.25, "jarak_match_m": 17.15, "metode_match": "optimal_nearest", "status_match": "PERLU_CEK" }, "geometry": { "type": "Polygon", "coordinates": [ [ [ 105.2371882363704, -5.552578330979213 ], [ 105.237208461506924, -5.552614022616966 ], [ 105.237159088002358, -5.552625920337866 ], [ 105.237141241896637, -5.552587848544043 ], [ 105.2371882363704, -5.552578330979213 ] ] ] } },
{ "type": "Feature", "properties": { "point_id": 192, "footprint_id": 819, "id_bangunan": "SDI-C59-059", "fungsi_bangunan": "Rumah Tinggal", "jumlah_lantai": 1, "tinggi_lantai": 4.0, "tinggi_total": 4.0, "luas_m2": 31.55, "jarak_match_m": 15.18, "metode_match": "optimal_nearest", "status_match": "PERLU_CEK" }, "geometry": { "type": "Polygon", "coordinates": [ [ [ 105.236632374167186, -5.551881782985212 ], [ 105.236651885543921, -5.551923185915215 ], [ 105.236597157841189, -5.551943649041281 ], [ 105.236580502259599, -5.551902246775578 ], [ 105.236632374167186, -5.551881782985212 ] ] ] } },
{ "type": "Feature", "properties": { "point_id": 219, "footprint_id": 490, "id_bangunan": "Blok C (SDI-C93-093)", "fungsi_bangunan": "Rumah Tinggal", "jumlah_lantai": 1, "tinggi_lantai": 4.0, "tinggi_total": 4.0, "luas_m2": 471.73, "jarak_match_m": 2302.31, "metode_match": "optimal_nearest", "status_match": "PERLU_CEK" }, "geometry": { "type": "Polygon", "coordinates": [ [ [ 105.244397767501781, -5.542707432120425 ], [ 105.244673784375991, -5.542672216330828 ], [ 105.244697579151662, -5.542803562715459 ], [ 105.244427272089069, -5.542850199935904 ], [ 105.244397767501781, -5.542707432120425 ] ] ] } },
{ "type": "Feature", "properties": { "point_id": 221, "footprint_id": 814, "id_bangunan": "Blok C (SDI-C95-095)", "fungsi_bangunan": "Rumah Tinggal", "jumlah_lantai": 1, "tinggi_lantai": 4.0, "tinggi_total": 4.0, "luas_m2": 120.34, "jarak_match_m": 30.71, "metode_match": "optimal_nearest", "status_match": "PERLU_CEK" }, "geometry": { "type": "Polygon", "coordinates": [ [ [ 105.236429100733119, -5.553455695945302 ], [ 105.236337015779569, -5.553479252484129 ], [ 105.236322025271718, -5.553429283524653 ], [ 105.236347009592308, -5.553420003699407 ], [ 105.236337015442189, -5.553390022542849 ], [ 105.236433383629077, -5.553366466100025 ], [ 105.236456940233822, -5.553447129637599 ], [ 105.236429100733119, -5.553455695945302 ] ] ] } },
{ "type": "Feature", "properties": { "point_id": 223, "footprint_id": 491, "id_bangunan": "Blok C (SDI-C97-097)", "fungsi_bangunan": "Rumah Tinggal", "jumlah_lantai": 1, "tinggi_lantai": 4.0, "tinggi_total": 4.0, "luas_m2": 174.11, "jarak_match_m": 35355.96, "metode_match": "optimal_nearest", "status_match": "PERLU_CEK" }, "geometry": { "type": "Polygon", "coordinates": [ [ [ 105.244739458081156, -5.542684589065171 ], [ 105.244791805981393, -5.542676023112578 ], [ 105.244867948204572, -5.542661746282906 ], [ 105.244868899937401, -5.542659842529951 ], [ 105.244887936418266, -5.542766442679101 ], [ 105.244757541511817, -5.542792141293071 ], [ 105.244739458081156, -5.542684589065171 ] ] ] } },
{ "type": "Feature", "properties": { "point_id": 227, "footprint_id": 803, "id_bangunan": "Blok C (SDI-C101-101)", "fungsi_bangunan": "Rumah Tinggal", "jumlah_lantai": 1, "tinggi_lantai": 4.0, "tinggi_total": 4.0, "luas_m2": 99.15, "jarak_match_m": 28.41, "metode_match": "optimal_nearest", "status_match": "PERLU_CEK" }, "geometry": { "type": "Polygon", "coordinates": [ [ [ 105.23624136162141, -5.552273580121351 ], [ 105.236317027896604, -5.552250736692161 ], [ 105.236330591393454, -5.552306416305252 ], [ 105.236347722929068, -5.552302846987351 ], [ 105.236362000085478, -5.552354957514316 ], [ 105.236299895802645, -5.552368520266635 ], [ 105.236292043544523, -5.552327830947085 ], [ 105.236254924676885, -5.55233496981621 ], [ 105.23624136162141, -5.552273580121351 ] ] ] } },
{ "type": "Feature", "properties": { "point_id": 253, "footprint_id": 230, "id_bangunan": "Blok D (SDI-D13-013)", "fungsi_bangunan": "Rumah Tinggal", "jumlah_lantai": 1, "tinggi_lantai": 4.0, "tinggi_total": 4.0, "luas_m2": 205.6, "jarak_match_m": 18.81, "metode_match": "optimal_nearest", "status_match": "PERLU_CEK" }, "geometry": { "type": "Polygon", "coordinates": [ [ [ 105.244025897759997, -5.554346414434211 ], [ 105.244103706869907, -5.554285024303589 ], [ 105.244208658860188, -5.554418045965319 ], [ 105.244130850647792, -5.554479436109406 ], [ 105.244025897759997, -5.554346414434211 ] ] ] } },
{ "type": "Feature", "properties": { "point_id": 267, "footprint_id": 214, "id_bangunan": "Blok D (SDI-D28-028)", "fungsi_bangunan": "Rumah Tinggal", "jumlah_lantai": 1, "tinggi_lantai": 4.0, "tinggi_total": 4.0, "luas_m2": 178.22, "jarak_match_m": 17.0, "metode_match": "optimal_nearest", "status_match": "PERLU_CEK" }, "geometry": { "type": "Polygon", "coordinates": [ [ [ 105.244510831998497, -5.555558512225037 ], [ 105.24448001350278, -5.555460918150199 ], [ 105.244615642621255, -5.555418087996575 ], [ 105.244646462039341, -5.555515682063203 ], [ 105.244510831998497, -5.555558512225037 ] ] ] } },
{ "type": "Feature", "properties": { "point_id": 363, "footprint_id": 175, "id_bangunan": "Blok D (SDI-D115-115)", "fungsi_bangunan": "Rumah Tinggal", "jumlah_lantai": 1, "tinggi_lantai": 4.0, "tinggi_total": 4.0, "luas_m2": 44.92, "jarak_match_m": 44.9, "metode_match": "optimal_nearest", "status_match": "PERLU_CEK" }, "geometry": { "type": "Polygon", "coordinates": [ [ [ 105.24194643742986, -5.558403798674982 ], [ 105.24202733840653, -5.558399039685217 ], [ 105.242029996895042, -5.558444233413345 ], [ 105.241949095912247, -5.558448992403735 ], [ 105.24194643742986, -5.558403798674982 ] ] ] } },
{ "type": "Feature", "properties": { "point_id": 364, "footprint_id": 162, "id_bangunan": "Blok D (SDI-D117-117)", "fungsi_bangunan": "Rumah Tinggal", "jumlah_lantai": 1, "tinggi_lantai": 4.0, "tinggi_total": 4.0, "luas_m2": 105.85, "jarak_match_m": 45.62, "metode_match": "optimal_nearest", "status_match": "PERLU_CEK" }, "geometry": { "type": "Polygon", "coordinates": [ [ [ 105.242019357873104, -5.558752939213907 ], [ 105.241939737801573, -5.558741629496693 ], [ 105.241954857390169, -5.558635193525174 ], [ 105.242034477447888, -5.558646504145655 ], [ 105.242019357873104, -5.558752939213907 ] ] ] } },
{ "type": "Feature", "properties": { "point_id": 367, "footprint_id": 168, "id_bangunan": "Blok D (SDI-D120-120)", "fungsi_bangunan": "Rumah Tinggal", "jumlah_lantai": 1, "tinggi_lantai": 4.0, "tinggi_total": 4.0, "luas_m2": 116.46, "jarak_match_m": 16.11, "metode_match": "optimal_nearest", "status_match": "PERLU_CEK" }, "geometry": { "type": "Polygon", "coordinates": [ [ [ 105.242391396582818, -5.558429972788408 ], [ 105.242486575002673, -5.558429972602683 ], [ 105.242486574359148, -5.558529910691217 ], [ 105.242391395922851, -5.558529909973004 ], [ 105.242391396582818, -5.558429972788408 ] ] ] } },
{ "type": "Feature", "properties": { "point_id": 372, "footprint_id": 165, "id_bangunan": "Blok D (SDI-D125-125)", "fungsi_bangunan": "Rumah Tinggal", "jumlah_lantai": 1, "tinggi_lantai": 4.0, "tinggi_total": 4.0, "luas_m2": 69.21, "jarak_match_m": 15.57, "metode_match": "optimal_nearest", "status_match": "PERLU_CEK" }, "geometry": { "type": "Polygon", "coordinates": [ [ [ 105.24205589229858, -5.558498976925969 ], [ 105.242182345693436, -5.558501084436835 ], [ 105.242181601017563, -5.558545772962285 ], [ 105.242055147613158, -5.558543665451677 ], [ 105.24205589229858, -5.558498976925969 ] ] ] } },
{ "type": "Feature", "properties": { "point_id": 375, "footprint_id": 159, "id_bangunan": "Blok D (SDI-D127-127)", "fungsi_bangunan": "Rumah Tinggal", "jumlah_lantai": 1, "tinggi_lantai": 4.0, "tinggi_total": 4.0, "luas_m2": 237.07, "jarak_match_m": 23.21, "metode_match": "optimal_nearest", "status_match": "PERLU_CEK" }, "geometry": { "type": "Polygon", "coordinates": [ [ [ 105.242610307074656, -5.558548945911422 ], [ 105.242800663405845, -5.558560843253004 ], [ 105.242794330554375, -5.558662169848669 ], [ 105.242603974190587, -5.558650272506502 ], [ 105.242610307074656, -5.558548945911422 ] ] ] } },
{ "type": "Feature", "properties": { "point_id": 380, "footprint_id": 161, "id_bangunan": "Blok D (SDI-D130-130)", "fungsi_bangunan": "Rumah Tinggal", "jumlah_lantai": 1, "tinggi_lantai": 4.0, "tinggi_total": 4.0, "luas_m2": 114.13, "jarak_match_m": 15.57, "metode_match": "optimal_nearest", "status_match": "PERLU_CEK" }, "geometry": { "type": "Polygon", "coordinates": [ [ [ 105.241891709891803, -5.558808307440873 ], [ 105.241895604495241, -5.558745290560005 ], [ 105.242042966190752, -5.558754398667224 ], [ 105.242039071602647, -5.558817414643727 ], [ 105.241891709891803, -5.558808307440873 ] ] ] } },
{ "type": "Feature", "properties": { "point_id": 395, "footprint_id": 371, "id_bangunan": "Blok D (SDI-D140-140)", "fungsi_bangunan": "Rumah Tinggal", "jumlah_lantai": 1, "tinggi_lantai": 4.0, "tinggi_total": 4.0, "luas_m2": 116.22, "jarak_match_m": 49.8, "metode_match": "optimal_nearest", "status_match": "PERLU_CEK" }, "geometry": { "type": "Polygon", "coordinates": [ [ [ 105.242345176565379, -5.554077200183036 ], [ 105.242397524060451, -5.554025327557225 ], [ 105.242416084288024, -5.554042460123745 ], [ 105.242429409116951, -5.554029610602345 ], [ 105.242477474673322, -5.554078151860556 ], [ 105.242462245551138, -5.554092904618773 ], [ 105.24248032979898, -5.554107419355253 ], [ 105.242435595520007, -5.554155246940576 ], [ 105.242345176565379, -5.554077200183036 ] ] ] } },
{ "type": "Feature", "properties": { "point_id": 478, "footprint_id": 852, "id_bangunan": "Blok C (SDI-C135-135)", "fungsi_bangunan": "Rumah Tinggal", "jumlah_lantai": 1, "tinggi_lantai": 4.0, "tinggi_total": 4.0, "luas_m2": 30.36, "jarak_match_m": 25.94, "metode_match": "optimal_nearest", "status_match": "PERLU_CEK" }, "geometry": { "type": "Polygon", "coordinates": [ [ [ 105.236902950346547, -5.553030657089373 ], [ 105.236949100104127, -5.553019721407294 ], [ 105.236963971424871, -5.553067310293242 ], [ 105.236918762464683, -5.553082776934476 ], [ 105.236902950346547, -5.553030657089373 ] ] ] } },
{ "type": "Feature", "properties": { "point_id": 480, "footprint_id": 812, "id_bangunan": "Blok C (SDI-B137-137)", "fungsi_bangunan": "Rumah Tinggal", "jumlah_lantai": 1, "tinggi_lantai": 4.0, "tinggi_total": 4.0, "luas_m2": 128.86, "jarak_match_m": 27.48, "metode_match": "optimal_nearest", "status_match": "PERLU_CEK" }, "geometry": { "type": "Polygon", "coordinates": [ [ [ 105.236201386787528, -5.553454981885405 ], [ 105.2362649177809, -5.553439277288807 ], [ 105.236313459061378, -5.553429997996529 ], [ 105.236333446494768, -5.553501381373928 ], [ 105.23628847485044, -5.553512089474407 ], [ 105.236294899174197, -5.553535645506047 ], [ 105.236259920902924, -5.553544925706771 ], [ 105.236224229457761, -5.553549922726382 ], [ 105.236201386787528, -5.553454981885405 ] ] ] } },
{ "type": "Feature", "properties": { "point_id": 482, "footprint_id": 837, "id_bangunan": "Blok C (SDI-C139-139)", "fungsi_bangunan": "Rumah Tinggal", "jumlah_lantai": 1, "tinggi_lantai": 4.0, "tinggi_total": 4.0, "luas_m2": 129.17, "jarak_match_m": 23.93, "metode_match": "optimal_nearest", "status_match": "PERLU_CEK" }, "geometry": { "type": "Polygon", "coordinates": [ [ [ 105.237031231058467, -5.55264440093116 ], [ 105.237036941654608, -5.552675809504426 ], [ 105.237046935588197, -5.552702935609366 ], [ 105.236991970231045, -5.552720781749584 ], [ 105.237000535861071, -5.552745765339103 ], [ 105.236976979929324, -5.55275504552242 ], [ 105.236954136983442, -5.552763611659044 ], [ 105.236929866115602, -5.552766467383373 ], [ 105.236903454539245, -5.552674382136319 ], [ 105.237031231058467, -5.55264440093116 ] ] ] } },
{ "type": "Feature", "properties": { "point_id": 483, "footprint_id": 809, "id_bangunan": "Blok C (SDI-C140-140)", "fungsi_bangunan": "Rumah Tinggal", "jumlah_lantai": 1, "tinggi_lantai": 4.0, "tinggi_total": 4.0, "luas_m2": 126.33, "jarak_match_m": 30.83, "metode_match": "optimal_nearest", "status_match": "PERLU_CEK" }, "geometry": { "type": "Polygon", "coordinates": [ [ [ 105.236019357558547, -5.553084500129954 ], [ 105.236105732544303, -5.553053804705778 ], [ 105.236102162560286, -5.553028820915508 ], [ 105.236143565437317, -5.553016684927377 ], [ 105.236174974770364, -5.553103059944025 ], [ 105.236055763436369, -5.553143748470528 ], [ 105.236045770158015, -5.553115908587421 ], [ 105.236030779265803, -5.553121619227004 ], [ 105.236019357558547, -5.553084500129954 ] ] ] } },
{ "type": "Feature", "properties": { "point_id": 486, "footprint_id": 804, "id_bangunan": "Blok C (SDI-C143-143)", "fungsi_bangunan": "Rumah Tinggal", "jumlah_lantai": 1, "tinggi_lantai": 4.0, "tinggi_total": 4.0, "luas_m2": 42.11, "jarak_match_m": 26.77, "metode_match": "optimal_nearest", "status_match": "PERLU_CEK" }, "geometry": { "type": "Polygon", "coordinates": [ [ [ 105.236067898779766, -5.552162934314909 ], [ 105.236117867608058, -5.552145088448157 ], [ 105.23614499345193, -5.552201481836061 ], [ 105.236093596505071, -5.552222183315579 ], [ 105.236067898779766, -5.552162934314909 ] ] ] } },
{ "type": "Feature", "properties": { "point_id": 507, "footprint_id": 791, "id_bangunan": "SDI-C102-102", "fungsi_bangunan": "Rumah Tinggal dan Warung", "jumlah_lantai": 1, "tinggi_lantai": 4.0, "tinggi_total": 4.0, "luas_m2": 76.24, "jarak_match_m": 17.34, "metode_match": "optimal_nearest", "status_match": "PERLU_CEK" }, "geometry": { "type": "Polygon", "coordinates": [ [ [ 105.236278483589047, -5.554167081725122 ], [ 105.236332904463737, -5.554135128928039 ], [ 105.23635938467396, -5.554123061311177 ], [ 105.236387938519542, -5.554176004720876 ], [ 105.23632845204736, -5.554204558107928 ], [ 105.236323692650302, -5.554199204550781 ], [ 105.236285026595851, -5.554218834391182 ], [ 105.236260042295129, -5.554178383513538 ], [ 105.236278483589047, -5.554167081725122 ] ] ] } },
{ "type": "Feature", "properties": { "point_id": 508, "footprint_id": 777, "id_bangunan": "SDI-C103-103", "fungsi_bangunan": "Rumah Tinggal dan Warung", "jumlah_lantai": 1, "tinggi_lantai": 4.0, "tinggi_total": 4.0, "luas_m2": 120.12, "jarak_match_m": 23.92, "metode_match": "optimal_nearest", "status_match": "PERLU_CEK" }, "geometry": { "type": "Polygon", "coordinates": [ [ [ 105.235436153992609, -5.552678133835179 ], [ 105.235558101005864, -5.552632923864896 ], [ 105.235576542522651, -5.55267456427326 ], [ 105.2355634547569, -5.552679918619132 ], [ 105.235561670354585, -5.552674564773571 ], [ 105.235552747984514, -5.552678728763577 ], [ 105.235567024494799, -5.552717989822989 ], [ 105.235465897379385, -5.552753086685638 ], [ 105.235436153992609, -5.552678133835179 ] ] ] } },
{ "type": "Feature", "properties": { "point_id": 522, "footprint_id": 404, "id_bangunan": "SDI-D06-006", "fungsi_bangunan": "Toko/Warung", "jumlah_lantai": 1, "tinggi_lantai": 4.0, "tinggi_total": 4.0, "luas_m2": 71.06, "jarak_match_m": 38.69, "metode_match": "optimal_nearest", "status_match": "PERLU_CEK" }, "geometry": { "type": "Polygon", "coordinates": [ [ [ 105.243394935502991, -5.552100284290466 ], [ 105.243368344562995, -5.552075121871128 ], [ 105.243376197055824, -5.552066793251756 ], [ 105.243335508178092, -5.552027294500608 ], [ 105.243378575815569, -5.551988985239362 ], [ 105.243445439237505, -5.55205323044256 ], [ 105.243394935502991, -5.552100284290466 ] ] ] } },
{ "type": "Feature", "properties": { "point_id": 531, "footprint_id": 787, "id_bangunan": "Blok C (SDI-C82-082)", "fungsi_bangunan": "Toko/Warung", "jumlah_lantai": 1, "tinggi_lantai": 4.0, "tinggi_total": 4.0, "luas_m2": 113.94, "jarak_match_m": 41.3, "metode_match": "optimal_nearest", "status_match": "PERLU_CEK" }, "geometry": { "type": "Polygon", "coordinates": [ [ [ 105.235837093145932, -5.553691189246903 ], [ 105.23588289823229, -5.553671558395644 ], [ 105.235951902415763, -5.553794101246858 ], [ 105.235962014554943, -5.553789342427634 ], [ 105.23598045581484, -5.553825629167354 ], [ 105.235926917618286, -5.55384763869552 ], [ 105.235891226194212, -5.553773280788812 ], [ 105.235878733833317, -5.553777444400146 ], [ 105.235837093145932, -5.553691189246903 ] ] ] } },
{ "type": "Feature", "properties": { "point_id": 532, "footprint_id": 790, "id_bangunan": "Blok C (SDI-C88-088)", "fungsi_bangunan": "Toko/Warung", "jumlah_lantai": 1, "tinggi_lantai": 4.0, "tinggi_total": 4.0, "luas_m2": 188.89, "jarak_match_m": 27.18, "metode_match": "optimal_nearest", "status_match": "PERLU_CEK" }, "geometry": { "type": "Polygon", "coordinates": [ [ [ 105.23620709909315, -5.553985052639802 ], [ 105.23627074966646, -5.553958878609281 ], [ 105.23630406234868, -5.554036210988809 ], [ 105.236321313260547, -5.554028477570228 ], [ 105.23635938467396, -5.554123061311177 ], [ 105.236312390288646, -5.554144476623016 ], [ 105.236281457251664, -5.55415696848489 ], [ 105.236271939272044, -5.55414150206535 ], [ 105.2362630168858, -5.5541456660666 ], [ 105.236257663114358, -5.554137338294601 ], [ 105.236263016661297, -5.55413376916354 ], [ 105.23620709909315, -5.553985052639802 ] ] ] } },
{ "type": "Feature", "properties": { "point_id": 534, "footprint_id": 209, "id_bangunan": "Blok D (SDI-D34-034)", "fungsi_bangunan": "Toko/Warung", "jumlah_lantai": 1, "tinggi_lantai": 4.0, "tinggi_total": 4.0, "luas_m2": 155.27, "jarak_match_m": 30.01, "metode_match": "optimal_nearest", "status_match": "PERLU_CEK" }, "geometry": { "type": "Polygon", "coordinates": [ [ [ 105.244893925645215, -5.556179551280919 ], [ 105.244880411035751, -5.556095763881054 ], [ 105.245027938160192, -5.556071968612179 ], [ 105.245041451887161, -5.556155756912831 ], [ 105.244893925645215, -5.556179551280919 ] ] ] } },
{ "type": "Feature", "properties": { "point_id": 545, "footprint_id": 641, "id_bangunan": "SDI-B06-006", "fungsi_bangunan": "Tempat Ibadah", "jumlah_lantai": 1, "tinggi_lantai": 4.0, "tinggi_total": 4.0, "luas_m2": 34.11, "jarak_match_m": 20.63, "metode_match": "optimal_nearest", "status_match": "PERLU_CEK" }, "geometry": { "type": "Polygon", "coordinates": [ [ [ 105.229784079300629, -5.549365917058797 ], [ 105.229839758490613, -5.549347357552886 ], [ 105.229853321049958, -5.549393042894366 ], [ 105.229798356027501, -5.549411603028767 ], [ 105.229784079300629, -5.549365917058797 ] ] ] } },
{ "type": "Feature", "properties": { "point_id": 548, "footprint_id": 231, "id_bangunan": "Blok D (SDI-D21-021)", "fungsi_bangunan": "Tempat Ibadah", "jumlah_lantai": 1, "tinggi_lantai": 4.0, "tinggi_total": 4.0, "luas_m2": 127.08, "jarak_match_m": 39.24, "metode_match": "optimal_nearest", "status_match": "PERLU_CEK" }, "geometry": { "type": "Polygon", "coordinates": [ [ [ 105.244231484010925, -5.554519877073025 ], [ 105.244321427253027, -5.554608393100793 ], [ 105.244263733112575, -5.554667018511373 ], [ 105.244173788966549, -5.5545785024754 ], [ 105.244231484010925, -5.554519877073025 ] ] ] } },
{ "type": "Feature", "properties": { "point_id": 551, "footprint_id": 922, "id_bangunan": "Blok B (SDI-B154-154)", "fungsi_bangunan": "Tempat Ibadah", "jumlah_lantai": 1, "tinggi_lantai": 4.0, "tinggi_total": 4.0, "luas_m2": 62.46, "jarak_match_m": 22.56, "metode_match": "optimal_nearest", "status_match": "PERLU_CEK" }, "geometry": { "type": "Polygon", "coordinates": [ [ [ 105.228862042173688, -5.551098869591589 ], [ 105.228934913321424, -5.551132182758382 ], [ 105.228909631753112, -5.551190181732397 ], [ 105.228835570267989, -5.551155977049312 ], [ 105.228862042173688, -5.551098869591589 ] ] ] } },
{ "type": "Feature", "properties": { "point_id": 554, "footprint_id": 817, "id_bangunan": "SDI-C60-060", "fungsi_bangunan": "Sekolah", "jumlah_lantai": 1, "tinggi_lantai": 4.0, "tinggi_total": 4.0, "luas_m2": 123.24, "jarak_match_m": 36.42, "metode_match": "optimal_nearest", "status_match": "PERLU_CEK" }, "geometry": { "type": "Polygon", "coordinates": [ [ [ 105.236762768713106, -5.551769949085502 ], [ 105.236758485152109, -5.551753292784125 ], [ 105.236817972401184, -5.551740919730292 ], [ 105.236822255393633, -5.551756147606892 ], [ 105.236834628525159, -5.551754244717319 ], [ 105.236844621763595, -5.551793267731431 ], [ 105.236827013813141, -5.551797550109236 ], [ 105.236835580466618, -5.551825152631416 ], [ 105.236718986352599, -5.551853229568391 ], [ 105.236702330446079, -5.551786129234491 ], [ 105.236762768713106, -5.551769949085502 ] ] ] } },
{ "type": "Feature", "properties": { "point_id": 558, "footprint_id": 259, "id_bangunan": "Blok D (SDI-D87-087)", "fungsi_bangunan": "Gedung Sekretariat / Bangunan Komunitas", "jumlah_lantai": 2, "tinggi_lantai": 4.0, "tinggi_total": 8.0, "luas_m2": 92.67, "jarak_match_m": 15.69, "metode_match": "optimal_nearest", "status_match": "PERLU_CEK" }, "geometry": { "type": "Polygon", "coordinates": [ [ [ 105.240613166776626, -5.555240776370573 ], [ 105.240577950920041, -5.55518747675703 ], [ 105.240671701393524, -5.55512299303679 ], [ 105.240712865649101, -5.555174627495474 ], [ 105.240613166776626, -5.555240776370573 ] ] ] } },
{ "type": "Feature", "properties": { "point_id": 566, "footprint_id": 1044, "id_bangunan": "SDI-B05-005", "fungsi_bangunan": "Gudang", "jumlah_lantai": 1, "tinggi_lantai": 4.0, "tinggi_total": 4.0, "luas_m2": 27.91, "jarak_match_m": 21.9, "metode_match": "optimal_nearest", "status_match": "PERLU_CEK" }, "geometry": { "type": "Polygon", "coordinates": [ [ [ 105.232289285003517, -5.550521246985614 ], [ 105.232321645149938, -5.55048507946668 ], [ 105.232354005936585, -5.550517440161646 ], [ 105.232321645633036, -5.550555511947526 ], [ 105.232289285003517, -5.550521246985614 ] ] ] } },
{ "type": "Feature", "properties": { "point_id": 567, "footprint_id": 841, "id_bangunan": "SDI-C43-043", "fungsi_bangunan": "Gudang", "jumlah_lantai": 1, "tinggi_lantai": 4.0, "tinggi_total": 4.0, "luas_m2": 24.48, "jarak_match_m": 15.48, "metode_match": "optimal_nearest", "status_match": "PERLU_CEK" }, "geometry": { "type": "Polygon", "coordinates": [ [ [ 105.237276275963993, -5.552709796626851 ], [ 105.23729233713938, -5.552738944872393 ], [ 105.237238799427956, -5.552766308165344 ], [ 105.237223927530977, -5.5527353754935 ], [ 105.237276275963993, -5.552709796626851 ] ] ] } },
{ "type": "Feature", "properties": { "point_id": 568, "footprint_id": 177, "id_bangunan": "Blok D (SDI-D110-110)", "fungsi_bangunan": "Gudang", "jumlah_lantai": 2, "tinggi_lantai": 4.0, "tinggi_total": 8.0, "luas_m2": 357.13, "jarak_match_m": 24.01, "metode_match": "optimal_nearest", "status_match": "PERLU_CEK" }, "geometry": { "type": "Polygon", "coordinates": [ [ [ 105.241791772384175, -5.557670925081507 ], [ 105.241974990684909, -5.557604300316684 ], [ 105.242026123274343, -5.557744914412475 ], [ 105.241842904937286, -5.557811539194493 ], [ 105.241791772384175, -5.557670925081507 ] ] ] } },
{ "type": "Feature", "properties": { "point_id": 576, "footprint_id": 1025, "id_bangunan": "Blok C (SDI-C127-127)", "fungsi_bangunan": "Kandang Kambing", "jumlah_lantai": 1, "tinggi_lantai": 4.0, "tinggi_total": 4.0, "luas_m2": 321.7, "jarak_match_m": 32.02, "metode_match": "optimal_nearest", "status_match": "PERLU_CEK" }, "geometry": { "type": "Polygon", "coordinates": [ [ [ 105.232507807067464, -5.552209887785576 ], [ 105.232578480141967, -5.552174361946013 ], [ 105.232727669361481, -5.552471152349274 ], [ 105.232656995359164, -5.552506678207785 ], [ 105.232507807067464, -5.552209887785576 ] ] ] } },
{ "type": "Feature", "properties": { "point_id": 580, "footprint_id": 789, "id_bangunan": "Blok C (SDI-C77-077)", "fungsi_bangunan": "Peternakan", "jumlah_lantai": 1, "tinggi_lantai": 4.0, "tinggi_total": 4.0, "luas_m2": 88.22, "jarak_match_m": 18.56, "metode_match": "optimal_nearest", "status_match": "PERLU_CEK" }, "geometry": { "type": "Polygon", "coordinates": [ [ [ 105.236145788699687, -5.553922596467397 ], [ 105.23621066878539, -5.553945791703357 ], [ 105.236183304703417, -5.554023719171842 ], [ 105.236094669631413, -5.553986242848695 ], [ 105.236113707266824, -5.55393976757049 ], [ 105.236145788699687, -5.553922596467397 ] ] ] } },
{ "type": "Feature", "properties": { "point_id": 584, "footprint_id": 1054, "id_bangunan": "SDI-A83-083", "fungsi_bangunan": "Gazebo", "jumlah_lantai": 1, "tinggi_lantai": 4.0, "tinggi_total": 4.0, "luas_m2": 16.24, "jarak_match_m": 17.73, "metode_match": "optimal_nearest", "status_match": "PERLU_CEK" }, "geometry": { "type": "Polygon", "coordinates": [ [ [ 105.223732927343036, -5.548189782479166 ], [ 105.22377825591127, -5.548189782518835 ], [ 105.223778256106826, -5.548219049420124 ], [ 105.223732927536332, -5.548219049380545 ], [ 105.223732927343036, -5.548189782479166 ] ] ] } },
{ "type": "Feature", "properties": { "point_id": 586, "footprint_id": 822, "id_bangunan": "SDI-C62-062", "fungsi_bangunan": "Parkiran motor", "jumlah_lantai": 1, "tinggi_lantai": 4.0, "tinggi_total": 4.0, "luas_m2": 15.46, "jarak_match_m": 35.7, "metode_match": "optimal_nearest", "status_match": "PERLU_CEK" }, "geometry": { "type": "Polygon", "coordinates": [ [ [ 105.236897445738677, -5.551868934063744 ], [ 105.236938372559592, -5.55186322386302 ], [ 105.236944559812031, -5.55189225304769 ], [ 105.236904108661335, -5.551899867322721 ], [ 105.236897445738677, -5.551868934063744 ] ] ] } },
{ "type": "Feature", "properties": { "point_id": 588, "footprint_id": 1069, "id_bangunan": "SDI-A82-082", "fungsi_bangunan": "Gubuk", "jumlah_lantai": 1, "tinggi_lantai": 4.0, "tinggi_total": 4.0, "luas_m2": 159.13, "jarak_match_m": 68.1, "metode_match": "optimal_nearest", "status_match": "PERLU_CEK" }, "geometry": { "type": "Polygon", "coordinates": [ [ [ 105.226493503453256, -5.546888321560147 ], [ 105.2265621589913, -5.546811774529389 ], [ 105.226656258238663, -5.546896173012467 ], [ 105.226587603606745, -5.546972720053469 ], [ 105.226493503453256, -5.546888321560147 ] ] ] } }
]
}
